<?xml version="1.0" encoding="UTF-8"?>
<kml xmlns="http://www.opengis.net/kml/2.2">
  <Document>
    <name>50嵐高屏台東區</name>
    <description>50嵐高屏台東區門市資訊</description>
    <Style id="icon-503-DB4436-labelson">
      <IconStyle>
        <color>ff3644db</color>
        <scale>1.1</scale>
        <Icon>
          <href>https://www.gstatic.com/mapspro/images/stock/503-wht-blank_maps.png</href>
        </Icon>
        <hotSpot x="16" xunits="pixels" y="32" yunits="insetPixels"/>
      </IconStyle>
    </Style>
    <Folder>
      <name>50嵐高屏台東區門店資訊</name>
      <Placemark>
        <name>50嵐林泉店</name>
        <description><![CDATA[TEL:07-7158576<br>ADD:802台灣高雄市苓雅區林泉街74號<br>https://goo.gl/maps/n2bCcrKHsqcus4UB8]]></description>
        <styleUrl>#icon-503-DB4436-labelson</styleUrl>
        <Point>
          <coordinates>
            120.317318,22.622844,0
          </coordinates>
        </Point>
      </Placemark>
      <Placemark>
        <name>50嵐中華新光店</name>
        <description><![CDATA[TEL:07-5369989<br>ADD:806台灣高雄市前鎮區中華五路1457號]]></description>
        <styleUrl>#icon-503-DB4436-labelson</styleUrl>
        <Point>
          <coordinates>
            120.3031795,22.6104231,0
          </coordinates>
        </Point>
      </Placemark>
      <Placemark>
        <name>50嵐六合店</name>
        <description><![CDATA[TEL:07-2266998<br>ADD:802台灣高雄市苓雅區六合路42-3號]]></description>
        <styleUrl>#icon-503-DB4436-labelson</styleUrl>
        <Point>
          <coordinates>
            120.318318,22.63238,0
          </coordinates>
        </Point>
      </Placemark>
      <Placemark>
        <name>50嵐三多店</name>
        <description><![CDATA[TEL:07-7270422<br>ADD:802台灣高雄市苓雅區三多一路281號]]></description>
        <styleUrl>#icon-503-DB4436-labelson</styleUrl>
        <Point>
          <coordinates>
            120.3294961,22.6219875,0
          </coordinates>
        </Point>
      </Placemark>
      <Placemark>
        <name>50嵐鼎中店</name>
        <description><![CDATA[TEL:3474552<br>ADD:807台灣高雄市三民區鼎中路261號]]></description>
        <styleUrl>#icon-503-DB4436-labelson</styleUrl>
        <Point>
          <coordinates>
            120.319178,22.6646847,0
          </coordinates>
        </Point>
      </Placemark>
      <Placemark>
        <name>50嵐土庫店</name>
        <description><![CDATA[TEL:07-3552006<br>ADD:811台灣高雄市楠梓區清豐二路170號]]></description>
        <styleUrl>#icon-503-DB4436-labelson</styleUrl>
        <Point>
          <coordinates>
            120.3300224,22.7364327,0
          </coordinates>
        </Point>
      </Placemark>
      <Placemark>
        <name>50嵐光遠大東店</name>
        <description><![CDATA[TEL:07-7426313<br>ADD:830台灣高雄市鳳山區光遠路232號]]></description>
        <styleUrl>#icon-503-DB4436-labelson</styleUrl>
        <Point>
          <coordinates>
            120.3628479,22.6254522,0
          </coordinates>
        </Point>
      </Placemark>
      <Placemark>
        <name>50嵐河堤裕誠店</name>
        <description><![CDATA[TEL:07-5592409<br>ADD:813台灣高雄市左營區裕誠路175號]]></description>
        <styleUrl>#icon-503-DB4436-labelson</styleUrl>
        <Point>
          <coordinates>
            120.3110594,22.664195,0
          </coordinates>
        </Point>
      </Placemark>
      <Placemark>
        <name>50嵐瑞隆店</name>
        <description><![CDATA[TEL:07-7219399<br>ADD:806台灣高雄市前鎮區瑞隆路542號]]></description>
        <styleUrl>#icon-503-DB4436-labelson</styleUrl>
        <Point>
          <coordinates>
            120.3274241,22.6053285,0
          </coordinates>
        </Point>
      </Placemark>
      <Placemark>
        <name>50嵐慶豐店</name>
        <description><![CDATA[TEL:07-5551060<br>ADD:804台灣高雄市鼓山區慶豐街22號]]></description>
        <styleUrl>#icon-503-DB4436-labelson</styleUrl>
        <Point>
          <coordinates>
            120.2928253,22.6658417,0
          </coordinates>
        </Point>
      </Placemark>
      <Placemark>
        <name>50嵐大昌立志店</name>
        <description><![CDATA[TEL:07-3954478<br>ADD:807台灣高雄市三民區大昌一路51號]]></description>
        <styleUrl>#icon-503-DB4436-labelson</styleUrl>
        <Point>
          <coordinates>
            120.3279322,22.6527685,0
          </coordinates>
        </Point>
      </Placemark>
      <Placemark>
        <name>50嵐復興一心店</name>
        <description><![CDATA[TEL:-07-5351031<br>ADD:806台灣高雄市前鎮區復興三路297號]]></description>
        <styleUrl>#icon-503-DB4436-labelson</styleUrl>
        <Point>
          <coordinates>
            120.310889,22.611917,0
          </coordinates>
        </Point>
      </Placemark>
      <Placemark>
        <name>50嵐小港店</name>
        <description><![CDATA[TEL:07-8017988<br>ADD:812台灣高雄市小港區崇文路85號]]></description>
        <styleUrl>#icon-503-DB4436-labelson</styleUrl>
        <Point>
          <coordinates>
            120.351779,22.5688,0
          </coordinates>
        </Point>
      </Placemark>
      <Placemark>
        <name>50嵐青年店</name>
        <description><![CDATA[TEL:07-5376229<br>ADD:802台灣高雄市苓雅區青年一路179-2號]]></description>
        <styleUrl>#icon-503-DB4436-labelson</styleUrl>
        <Point>
          <coordinates>
            120.3071328,22.6215464,0
          </coordinates>
        </Point>
      </Placemark>
      <Placemark>
        <name>50嵐屏東廣東店</name>
        <description><![CDATA[TEL:08-7353529<br>ADD:900台灣屏東縣屏東市廣東路516號]]></description>
        <styleUrl>#icon-503-DB4436-labelson</styleUrl>
        <Point>
          <coordinates>
            120.500174,22.6820281,0
          </coordinates>
        </Point>
      </Placemark>
      <Placemark>
        <name>50嵐陽明店</name>
        <description><![CDATA[TEL:07-3896001<br>ADD:807台灣高雄市三民區陽明路390號]]></description>
        <styleUrl>#icon-503-DB4436-labelson</styleUrl>
        <Point>
          <coordinates>
            120.3427665,22.6458999,0
          </coordinates>
        </Point>
      </Placemark>
      <Placemark>
        <name>50嵐七賢鹽埕店</name>
        <description><![CDATA[TEL:07-5218988<br>ADD:803台灣高雄市鹽埕區七賢三路138號]]></description>
        <styleUrl>#icon-503-DB4436-labelson</styleUrl>
        <Point>
          <coordinates>
            120.2824315,22.6263299,0
          </coordinates>
        </Point>
      </Placemark>
      <Placemark>
        <name>50嵐後昌店</name>
        <description><![CDATA[TEL:07-3600835<br>ADD:811台灣高雄市楠梓區後昌路815號]]></description>
        <styleUrl>#icon-503-DB4436-labelson</styleUrl>
        <Point>
          <coordinates>
            120.2951683,22.7113736,0
          </coordinates>
        </Point>
      </Placemark>
      <Placemark>
        <name>50嵐屏東民族店</name>
        <description><![CDATA[TEL:08-7341888<br>ADD:900台灣屏東縣屏東市民族路56號]]></description>
        <styleUrl>#icon-503-DB4436-labelson</styleUrl>
        <Point>
          <coordinates>
            120.4889,22.670072,0
          </coordinates>
        </Point>
      </Placemark>
      <Placemark>
        <name>50嵐新富店</name>
        <description><![CDATA[TEL:07-7633466<br>ADD:830台灣高雄市鳳山區新富路454號]]></description>
        <styleUrl>#icon-503-DB4436-labelson</styleUrl>
        <Point>
          <coordinates>
            120.3465183,22.6130884,0
          </coordinates>
        </Point>
      </Placemark>
      <Placemark>
        <name>50嵐大寮店</name>
        <description><![CDATA[TEL:07-7830668<br>ADD:831台灣高雄市大寮區鳳林四路120號]]></description>
        <styleUrl>#icon-503-DB4436-labelson</styleUrl>
        <Point>
          <coordinates>
            120.3863389,22.616035,0
          </coordinates>
        </Point>
      </Placemark>
      <Placemark>
        <name>50嵐台東中華店</name>
        <description><![CDATA[TEL:089-333293<br>ADD:950台灣台東縣台東市中華路一段625號]]></description>
        <styleUrl>#icon-503-DB4436-labelson</styleUrl>
        <Point>
          <coordinates>
            121.1486325,22.7497488,0
          </coordinates>
        </Point>
      </Placemark>
      <Placemark>
        <name>50嵐自立六合店</name>
        <description><![CDATA[TEL:07-2869069<br>ADD:800台灣高雄市新興區自立二路126號]]></description>
        <styleUrl>#icon-503-DB4436-labelson</styleUrl>
        <Point>
          <coordinates>
            120.298577,22.632445,0
          </coordinates>
        </Point>
      </Placemark>
      <Placemark>
        <name>50嵐中山店</name>
        <description><![CDATA[TEL:07-7190369<br>ADD:830台灣高雄市鳳山區五甲一路28號]]></description>
        <styleUrl>#icon-503-DB4436-labelson</styleUrl>
        <Point>
          <coordinates>
            120.358028,22.621837,0
          </coordinates>
        </Point>
      </Placemark>
      <Placemark>
        <name>50嵐崇德店</name>
        <description><![CDATA[TEL:07-3452020<br>ADD:813台灣高雄市左營區崇德路277號]]></description>
        <styleUrl>#icon-503-DB4436-labelson</styleUrl>
        <Point>
          <coordinates>
            120.3036484,22.6757847,0
          </coordinates>
        </Point>
      </Placemark>
      <Placemark>
        <name>50嵐林園高中店</name>
        <description><![CDATA[TEL:07-6426965<br>ADD:832台灣高雄市林園區林園北路509號]]></description>
        <styleUrl>#icon-503-DB4436-labelson</styleUrl>
        <Point>
          <coordinates>
            120.3950799,22.5157214,0
          </coordinates>
        </Point>
      </Placemark>
      <Placemark>
        <name>50嵐台東東商店</name>
        <description><![CDATA[TEL:089-345875<br>ADD:950台灣台東縣台東市正氣路467號]]></description>
        <styleUrl>#icon-503-DB4436-labelson</styleUrl>
        <Point>
          <coordinates>
            121.1449554,22.7572269,0
          </coordinates>
        </Point>
      </Placemark>
      <Placemark>
        <name>50嵐明誠富民店</name>
        <description><![CDATA[TEL:07-5508285<br>ADD:813台灣高雄市左營區明誠二路493號]]></description>
        <styleUrl>#icon-503-DB4436-labelson</styleUrl>
        <Point>
          <coordinates>
            120.305471,22.660946,0
          </coordinates>
        </Point>
      </Placemark>
      <Placemark>
        <name>50嵐建興店</name>
        <description><![CDATA[TEL:07-3871178<br>ADD:807台灣高雄市三民區建興路86號]]></description>
        <styleUrl>#icon-503-DB4436-labelson</styleUrl>
        <Point>
          <coordinates>
            120.3290653,22.6427095,0
          </coordinates>
        </Point>
      </Placemark>
      <Placemark>
        <name>50嵐華夏高鐵店</name>
        <description><![CDATA[TEL:07-3505398<br>ADD:813台灣高雄市左營區華夏路1265號]]></description>
        <styleUrl>#icon-503-DB4436-labelson</styleUrl>
        <Point>
          <coordinates>
            120.3105114,22.6853123,0
          </coordinates>
        </Point>
      </Placemark>
      <Placemark>
        <name>50嵐鼎山店</name>
        <description><![CDATA[TEL:07-3908326<br>ADD:807台灣高雄市三民區鼎山街617號]]></description>
        <styleUrl>#icon-503-DB4436-labelson</styleUrl>
        <Point>
          <coordinates>
            120.317188,22.65034,0
          </coordinates>
        </Point>
      </Placemark>
      <Placemark>
        <name>50嵐鳳山文衡店</name>
        <description><![CDATA[TEL:07-7808811<br>ADD:830台灣高雄市鳳山區文衡路445號]]></description>
        <styleUrl>#icon-503-DB4436-labelson</styleUrl>
        <Point>
          <coordinates>
            120.3475095,22.6414823,0
          </coordinates>
        </Point>
      </Placemark>
      <Placemark>
        <name>50嵐大順店</name>
        <description><![CDATA[TEL:07-2262699<br>ADD:802台灣高雄市苓雅區大順三路199號]]></description>
        <styleUrl>#icon-503-DB4436-labelson</styleUrl>
        <Point>
          <coordinates>
            120.3261876,22.6347265,0
          </coordinates>
        </Point>
      </Placemark>
      <Placemark>
        <name>50嵐自立七賢店</name>
        <description><![CDATA[TEL:07-2863211<br>ADD:801台灣高雄市前金區自立一路43號]]></description>
        <styleUrl>#icon-503-DB4436-labelson</styleUrl>
        <Point>
          <coordinates>
            120.2973399,22.6350269,0
          </coordinates>
        </Point>
      </Placemark>
      <Placemark>
        <name>50嵐德昌店</name>
        <description><![CDATA[TEL:07-8125428<br>ADD:806台灣高雄市前鎮區德昌路183號]]></description>
        <styleUrl>#icon-503-DB4436-labelson</styleUrl>
        <Point>
          <coordinates>
            120.3165575,22.5837772,0
          </coordinates>
        </Point>
      </Placemark>
      <Placemark>
        <name>50嵐富國店</name>
        <description><![CDATA[TEL:07-5507869<br>ADD:813台灣高雄市左營區富國路275號]]></description>
        <styleUrl>#icon-503-DB4436-labelson</styleUrl>
        <Point>
          <coordinates>
            120.3070682,22.6661549,0
          </coordinates>
        </Point>
      </Placemark>
      <Placemark>
        <name>50嵐左大店</name>
        <description><![CDATA[TEL:07-5837788<br>ADD:813台灣高雄市左營區左營大路49號]]></description>
        <styleUrl>#icon-503-DB4436-labelson</styleUrl>
        <Point>
          <coordinates>
            120.287657,22.681308,0
          </coordinates>
        </Point>
      </Placemark>
      <Placemark>
        <name>50嵐東港安泰店</name>
        <description><![CDATA[TEL:08-8330966<br>ADD:928台灣屏東縣東港鎮中正路一段192號]]></description>
        <styleUrl>#icon-503-DB4436-labelson</styleUrl>
        <Point>
          <coordinates>
            120.4587172,22.474093,0
          </coordinates>
        </Point>
      </Placemark>
      <Placemark>
        <name>50嵐福德店</name>
        <description><![CDATA[TEL:07-7275759<br>ADD:802台灣高雄市苓雅區福德三路200號]]></description>
        <styleUrl>#icon-503-DB4436-labelson</styleUrl>
        <Point>
          <coordinates>
            120.3268715,22.6266467,0
          </coordinates>
        </Point>
      </Placemark>
      <Placemark>
        <name>50嵐後勁店</name>
        <description><![CDATA[TEL:07-3657282<br>ADD:811台灣高雄市楠梓區後昌路93號]]></description>
        <styleUrl>#icon-503-DB4436-labelson</styleUrl>
        <Point>
          <coordinates>
            120.3111188,22.7192365,0
          </coordinates>
        </Point>
      </Placemark>
      <Placemark>
        <name>50嵐自由曾子店</name>
        <description><![CDATA[TEL:07-3451214<br>ADD:813台灣高雄市左營區自由三路391號]]></description>
        <styleUrl>#icon-503-DB4436-labelson</styleUrl>
        <Point>
          <coordinates>
            120.3122779,22.6754077,0
          </coordinates>
        </Point>
      </Placemark>
      <Placemark>
        <name>50嵐武廟店</name>
        <description><![CDATA[TEL:07-7152699<br>ADD:802台灣高雄市苓雅區武廟路138-1號]]></description>
        <styleUrl>#icon-503-DB4436-labelson</styleUrl>
        <Point>
          <coordinates>
            120.3277268,22.631188,0
          </coordinates>
        </Point>
      </Placemark>
      <Placemark>
        <name>50嵐建國中山店</name>
        <description><![CDATA[TEL:07-2358555<br>ADD:807台灣高雄市三民區建國二路273號]]></description>
        <styleUrl>#icon-503-DB4436-labelson</styleUrl>
        <Point>
          <coordinates>
            120.3038068,22.6375589,0
          </coordinates>
        </Point>
      </Placemark>
      <Placemark>
        <name>50嵐華夏新光店</name>
        <description><![CDATA[TEL:07-3478282<br>ADD:813台灣高雄市左營區華夏路939號]]></description>
        <styleUrl>#icon-503-DB4436-labelson</styleUrl>
        <Point>
          <coordinates>
            120.3047632,22.6809726,0
          </coordinates>
        </Point>
      </Placemark>
      <Placemark>
        <name>50嵐大昌大豐店</name>
        <description><![CDATA[TEL:07-3966466<br>ADD:807台灣高雄市三民區大昌二路165號]]></description>
        <styleUrl>#icon-503-DB4436-labelson</styleUrl>
        <Point>
          <coordinates>
            120.3319808,22.6447495,0
          </coordinates>
        </Point>
      </Placemark>
      <Placemark>
        <name>50嵐高應大店</name>
        <description><![CDATA[TEL:07-3985958<br>ADD:807台灣高雄市三民區大昌二路555號]]></description>
        <styleUrl>#icon-503-DB4436-labelson</styleUrl>
        <Point>
          <coordinates>
            120.3296386,22.6519064,0
          </coordinates>
        </Point>
      </Placemark>
      <Placemark>
        <name>50嵐屏東勝利店</name>
        <description><![CDATA[TEL:08-7335116<br>ADD:900台灣屏東縣屏東市勝利路205號]]></description>
        <styleUrl>#icon-503-DB4436-labelson</styleUrl>
        <Point>
          <coordinates>
            120.4792149,22.6788795,0
          </coordinates>
        </Point>
      </Placemark>
      <Placemark>
        <name>50嵐獅甲復興店</name>
        <description><![CDATA[TEL:07-3303881<br>ADD:806台灣高雄市前鎮區復興三路129號]]></description>
        <styleUrl>#icon-503-DB4436-labelson</styleUrl>
        <Point>
          <coordinates>
            120.307878,22.6079,0
          </coordinates>
        </Point>
      </Placemark>
      <Placemark>
        <name>50嵐鳳屏店</name>
        <description><![CDATA[TEL:07-7013011<br>ADD:831台灣高雄市大寮區鳳屏一路393號]]></description>
        <styleUrl>#icon-503-DB4436-labelson</styleUrl>
        <Point>
          <coordinates>
            120.3946579,22.6376124,0
          </coordinates>
        </Point>
      </Placemark>
      <Placemark>
        <name>50嵐東港中山店</name>
        <description><![CDATA[TEL:08-8350345<br>ADD:928台灣屏東縣東港鎮中山路11-1號]]></description>
        <styleUrl>#icon-503-DB4436-labelson</styleUrl>
        <Point>
          <coordinates>
            120.4521109,22.465626,0
          </coordinates>
        </Point>
      </Placemark>
      <Placemark>
        <name>50嵐哈瑪星臨海店</name>
        <description><![CDATA[TEL:07-5512998<br>ADD:804台灣高雄市鼓山區臨海二路41號]]></description>
        <styleUrl>#icon-503-DB4436-labelson</styleUrl>
        <Point>
          <coordinates>
            120.2721966,22.6229021,0
          </coordinates>
        </Point>
      </Placemark>
      <Placemark>
        <name>50嵐德賢店</name>
        <description><![CDATA[TEL:07-6345050<br>ADD:811台灣高雄市楠梓區德賢路236-1號]]></description>
        <styleUrl>#icon-503-DB4436-labelson</styleUrl>
        <Point>
          <coordinates>
            120.3057308,22.7265546,0
          </coordinates>
        </Point>
      </Placemark>
      <Placemark>
        <name>50嵐天祥店</name>
        <description><![CDATA[TEL:07-3595160<br>ADD:807台灣高雄市三民區天祥一路134號]]></description>
        <styleUrl>#icon-503-DB4436-labelson</styleUrl>
        <Point>
          <coordinates>
            120.3194869,22.667788,0
          </coordinates>
        </Point>
      </Placemark>
      <Placemark>
        <name>50嵐林園文化店</name>
        <description><![CDATA[TEL:07-6422022<br>ADD:832台灣高雄市林園區文化街131號]]></description>
        <styleUrl>#icon-503-DB4436-labelson</styleUrl>
        <Point>
          <coordinates>
            120.3935659,22.5043147,0
          </coordinates>
        </Point>
      </Placemark>
      <Placemark>
        <name>50嵐重愛店</name>
        <description><![CDATA[TEL:07-3592772<br>ADD:813台灣高雄市左營區重愛路59號]]></description>
        <styleUrl>#icon-503-DB4436-labelson</styleUrl>
        <Point>
          <coordinates>
            120.318531,22.683093,0
          </coordinates>
        </Point>
      </Placemark>
      <Placemark>
        <name>50嵐屏東林森店</name>
        <description><![CDATA[TEL:08-7339358<br>ADD:900台灣屏東縣屏東市林森路109號]]></description>
        <styleUrl>#icon-503-DB4436-labelson</styleUrl>
        <Point>
          <coordinates>
            120.4908532,22.6732155,0
          </coordinates>
        </Point>
      </Placemark>
      <Placemark>
        <name>50嵐仁武店</name>
        <description><![CDATA[TEL:07-3739077<br>ADD:814台灣高雄市仁武區中正路154號]]></description>
        <styleUrl>#icon-503-DB4436-labelson</styleUrl>
        <Point>
          <coordinates>
            120.3507085,22.7022637,0
          </coordinates>
        </Point>
      </Placemark>
      <Placemark>
        <name>50嵐科工館店</name>
        <description><![CDATA[TEL:07-3925137<br>ADD:807台灣高雄市三民區九如一路782號]]></description>
        <styleUrl>#icon-503-DB4436-labelson</styleUrl>
        <Point>
          <coordinates>
            120.3206374,22.6399908,0
          </coordinates>
        </Point>
      </Placemark>
      <Placemark>
        <name>50嵐自強中正店</name>
        <description><![CDATA[TEL:07-2511770<br>ADD:801台灣高雄市前金區自強二路180號]]></description>
        <styleUrl>#icon-503-DB4436-labelson</styleUrl>
        <Point>
          <coordinates>
            120.294439,22.627995,0
          </coordinates>
        </Point>
      </Placemark>
      <Placemark>
        <name>50嵐覺民店</name>
        <description><![CDATA[TEL:07-3821959<br>ADD:807台灣高雄市三民區覺民路185號]]></description>
        <styleUrl>#icon-503-DB4436-labelson</styleUrl>
        <Point>
          <coordinates>
            120.340273,22.639311,0
          </coordinates>
        </Point>
      </Placemark>
      <Placemark>
        <name>50嵐屏東廣東陸興店</name>
        <description><![CDATA[TEL:08-7223536<br>ADD:900台灣屏東縣屏東市廣東路110號]]></description>
        <styleUrl>#icon-503-DB4436-labelson</styleUrl>
        <Point>
          <coordinates>
            120.4996376,22.6730047,0
          </coordinates>
        </Point>
      </Placemark>
      <Placemark>
        <name>50嵐武慶店</name>
        <description><![CDATA[TEL:07-7275050<br>ADD:806台灣高雄市前鎮區武慶二路39號]]></description>
        <styleUrl>#icon-503-DB4436-labelson</styleUrl>
        <Point>
          <coordinates>
            120.3327249,22.6111828,0
          </coordinates>
        </Point>
      </Placemark>
      <Placemark>
        <name>50嵐光華夜市店</name>
        <description><![CDATA[TEL:07-3341530<br>ADD:高雄市前鎮區光華二路309號]]></description>
        <styleUrl>#icon-503-DB4436-labelson</styleUrl>
        <Point>
          <coordinates>
            120.318013,22.615085,0
          </coordinates>
        </Point>
      </Placemark>
      <Placemark>
        <name>50嵐嫩江店</name>
        <description><![CDATA[TEL:07-3123008<br>ADD:高雄市三民區嫩江街72號]]></description>
        <styleUrl>#icon-503-DB4436-labelson</styleUrl>
        <Point>
          <coordinates>
            120.2984507,22.6428855,0
          </coordinates>
        </Point>
      </Placemark>
      <Placemark>
        <name>50嵐五甲自強店</name>
        <description><![CDATA[TEL:07-8310273<br>ADD:高雄市鳳山區五甲二路675號]]></description>
        <styleUrl>#icon-503-DB4436-labelson</styleUrl>
        <Point>
          <coordinates>
            120.3293784,22.5939245,0
          </coordinates>
        </Point>
      </Placemark>
      <Placemark>
        <name>50嵐鳳山青年店</name>
        <description><![CDATA[TEL:07-7997229<br>ADD:高雄市鳳山區青年路一段313號]]></description>
        <styleUrl>#icon-503-DB4436-labelson</styleUrl>
        <Point>
          <coordinates>
            120.3490883,22.6258322,0
          </coordinates>
        </Point>
      </Placemark>
      <Placemark>
        <name>50嵐內惟店</name>
        <description><![CDATA[TEL:804台灣高雄市鼓山區九如四路1434號<br>ADD:07-5850666]]></description>
        <styleUrl>#icon-503-DB4436-labelson</styleUrl>
        <Point>
          <coordinates>
            120.2793087,22.6588762,0
          </coordinates>
        </Point>
      </Placemark>
      <Placemark>
        <name>50嵐大社二店</name>
        <description><![CDATA[TEL:07-3544488<br>ADD:815台灣高雄市大社區中山路240號]]></description>
        <styleUrl>#icon-503-DB4436-labelson</styleUrl>
        <Point>
          <coordinates>
            120.3485203,22.7318363,0
          </coordinates>
        </Point>
      </Placemark>
      <Placemark>
        <name>50嵐鳳山八德店</name>
        <description><![CDATA[TEL:07-7778889<br>ADD:830台灣高雄市鳳山區八德路280號]]></description>
        <styleUrl>#icon-503-DB4436-labelson</styleUrl>
        <Point>
          <coordinates>
            120.355729,22.63881,0
          </coordinates>
        </Point>
      </Placemark>
      <Placemark>
        <name>50嵐民權民生店</name>
        <description><![CDATA[TEL:07-2222029<br>ADD:800台灣高雄市新興區民生一路156號]]></description>
        <styleUrl>#icon-503-DB4436-labelson</styleUrl>
        <Point>
          <coordinates>
            120.309747,22.62804,0
          </coordinates>
        </Point>
      </Placemark>
      <Placemark>
        <name>50嵐榮總店</name>
        <description><![CDATA[TEL:07-3103300<br>ADD:813台灣高雄市左營區榮總路31號]]></description>
        <styleUrl>#icon-503-DB4436-labelson</styleUrl>
        <Point>
          <coordinates>
            120.3217291,22.678752,0
          </coordinates>
        </Point>
      </Placemark>
      <Placemark>
        <name>50嵐瑞豐店</name>
        <description><![CDATA[TEL:5559335<br>ADD:804台灣高雄市鼓山區裕誠路1182號]]></description>
        <styleUrl>#icon-503-DB4436-labelson</styleUrl>
        <Point>
          <coordinates>
            120.2974633,22.6659991,0
          </coordinates>
        </Point>
      </Placemark>
      <Placemark>
        <name>50嵐漢民店</name>
        <description><![CDATA[TEL:07-8071595<br>ADD:812台灣高雄市小港區漢民路669號]]></description>
        <styleUrl>#icon-503-DB4436-labelson</styleUrl>
        <Point>
          <coordinates>
            120.360738,22.567326,0
          </coordinates>
        </Point>
      </Placemark>
      <Placemark>
        <name>50嵐光遠黃埔店</name>
        <description><![CDATA[TEL:07-7905070<br>ADD:830台灣高雄市鳳山區光遠路63號]]></description>
        <styleUrl>#icon-503-DB4436-labelson</styleUrl>
        <Point>
          <coordinates>
            120.3664887,22.6236591,0
          </coordinates>
        </Point>
      </Placemark>
      <Placemark>
        <name>50嵐大順富國店</name>
        <description><![CDATA[TEL:07-5507635<br>ADD:813台灣高雄市左營區大順一路276號]]></description>
        <styleUrl>#icon-503-DB4436-labelson</styleUrl>
        <Point>
          <coordinates>
            120.306872,22.657166,0
          </coordinates>
        </Point>
      </Placemark>
      <Placemark>
        <name>50嵐旗津店</name>
        <description><![CDATA[TEL:07-5713759<br>ADD:805台灣高雄市旗津區廟前路112號]]></description>
        <styleUrl>#icon-503-DB4436-labelson</styleUrl>
        <Point>
          <coordinates>
            120.2691722,22.6138426,0
          </coordinates>
        </Point>
      </Placemark>
      <Placemark>
        <name>50嵐自強青年店</name>
        <description><![CDATA[TEL:07-2693888<br>ADD:802台灣高雄市苓雅區自強三路169號]]></description>
        <styleUrl>#icon-503-DB4436-labelson</styleUrl>
        <Point>
          <coordinates>
            120.2980992,22.6178393,0
          </coordinates>
        </Point>
      </Placemark>
      <Placemark>
        <name>50嵐鼎山明誠店</name>
        <description><![CDATA[TEL:07-3908780<br>ADD:807台灣高雄市三民區鼎山街233號]]></description>
        <styleUrl>#icon-503-DB4436-labelson</styleUrl>
        <Point>
          <coordinates>
            120.3220103,22.6599011,0
          </coordinates>
        </Point>
      </Placemark>
      <Placemark>
        <name>50嵐鳳山經武店</name>
        <description><![CDATA[TEL:07-7902260<br>ADD:830台灣高雄市鳳山區經武路158號]]></description>
        <styleUrl>#icon-503-DB4436-labelson</styleUrl>
        <Point>
          <coordinates>
            120.3641338,22.6357598,0
          </coordinates>
        </Point>
      </Placemark>
      <Placemark>
        <name>50嵐小港中安店</name>
        <description><![CDATA[TEL:07-7915637<br>ADD:830台灣高雄市小港區中安路636號]]></description>
        <styleUrl>#icon-503-DB4436-labelson</styleUrl>
        <Point>
          <coordinates>
            120.359922,22.5848998,0
          </coordinates>
        </Point>
      </Placemark>
      <Placemark>
        <name>50嵐新庄巨蛋店</name>
        <description><![CDATA[TEL:07-3488470<br>ADD:813台灣高雄市左營區新庄仔路235-3號]]></description>
        <styleUrl>#icon-503-DB4436-labelson</styleUrl>
        <Point>
          <coordinates>
            120.306161,22.669823,0
          </coordinates>
        </Point>
      </Placemark>
      <Placemark>
        <name>50嵐左大聖公店</name>
        <description><![CDATA[TEL:07-5888833<br>ADD:813台灣高雄市左營區左營大路281號]]></description>
        <styleUrl>#icon-503-DB4436-labelson</styleUrl>
        <Point>
          <coordinates>
            120.291361,22.6864993,0
          </coordinates>
        </Point>
      </Placemark>
      <Placemark>
        <name>50嵐十全店</name>
        <description><![CDATA[TEL:07-3116136<br>ADD:807台灣高雄市三民區十全一路391號]]></description>
        <styleUrl>#icon-503-DB4436-labelson</styleUrl>
        <Point>
          <coordinates>
            120.3053151,22.6452534,0
          </coordinates>
        </Point>
      </Placemark>
      <Placemark>
        <name>50嵐瑞隆二店</name>
        <description><![CDATA[TEL:07-7214977<br>ADD:806台灣高雄市前鎮區瑞隆路315號]]></description>
        <styleUrl>#icon-503-DB4436-labelson</styleUrl>
        <Point>
          <coordinates>
            120.33254,22.605413,0
          </coordinates>
        </Point>
      </Placemark>
      <Placemark>
        <name>50嵐五甲南華店</name>
        <description><![CDATA[TEL:07-7269028<br>ADD:830台灣高雄市鳳山區南華路151號]]></description>
        <styleUrl>#icon-503-DB4436-labelson</styleUrl>
        <Point>
          <coordinates>
            120.3377374,22.6031031,0
          </coordinates>
        </Point>
      </Placemark>
      <Placemark>
        <name>50嵐鳥松中正店</name>
        <description><![CDATA[TEL:07-7355063<br>ADD:833台灣高雄市鳥松區中正路345號]]></description>
        <styleUrl>#icon-503-DB4436-labelson</styleUrl>
        <Point>
          <coordinates>
            120.3634561,22.6623538,0
          </coordinates>
        </Point>
      </Placemark>
      <Placemark>
        <name>50嵐六合復興店</name>
        <description><![CDATA[TEL:07-2364008<br>ADD:800台灣高雄市新興區六合一路57-5號]]></description>
        <styleUrl>#icon-503-DB4436-labelson</styleUrl>
        <Point>
          <coordinates>
            120.3079487,22.6324834,0
          </coordinates>
        </Point>
      </Placemark>
      <Placemark>
        <name>50嵐捷運鳳山店</name>
        <description><![CDATA[TEL:07-7903669<br>ADD:830台灣高雄市鳳山區光遠路335號]]></description>
        <styleUrl>#icon-503-DB4436-labelson</styleUrl>
        <Point>
          <coordinates>
            120.3562278,22.6260102,0
          </coordinates>
        </Point>
      </Placemark>
      <Placemark>
        <name>50嵐三多文橫店</name>
        <description><![CDATA[TEL:07-5365985<br>ADD:802台灣高雄市苓雅區文橫二路11號]]></description>
        <styleUrl>#icon-503-DB4436-labelson</styleUrl>
        <Point>
          <coordinates>
            120.3065366,22.6152002,0
          </coordinates>
        </Point>
      </Placemark>
      <Placemark>
        <name>50嵐小港平和店</name>
        <description><![CDATA[TEL:07-8225766<br>ADD:812台灣高雄市小港區平和路11號]]></description>
        <styleUrl>#icon-503-DB4436-labelson</styleUrl>
        <Point>
          <coordinates>
            120.3346189,22.5634324,0
          </coordinates>
        </Point>
      </Placemark>
      <Placemark>
        <name>50嵐仁雄店</name>
        <description><![CDATA[TEL:07-3718282<br>ADD:814台灣高雄市仁武區仁雄路13-9號]]></description>
        <styleUrl>#icon-503-DB4436-labelson</styleUrl>
        <Point>
          <coordinates>
            120.3540856,22.6809757,0
          </coordinates>
        </Point>
      </Placemark>
      <Placemark>
        <name>50嵐三多中華店</name>
        <description><![CDATA[TEL:07-2691588<br>ADD:802台灣高雄市苓雅區三多四路75號]]></description>
        <styleUrl>#icon-503-DB4436-labelson</styleUrl>
        <Point>
          <coordinates>
            120.301357,22.612742,0
          </coordinates>
        </Point>
      </Placemark>
      <Placemark>
        <name>50嵐旗山延平店</name>
        <description><![CDATA[TEL:07-6628789<br>ADD:842台灣高雄市旗山區延平一路546號]]></description>
        <styleUrl>#icon-503-DB4436-labelson</styleUrl>
        <Point>
          <coordinates>
            120.4830783,22.8884717,0
          </coordinates>
        </Point>
      </Placemark>
      <Placemark>
        <name>50嵐林森八德店</name>
        <description><![CDATA[TEL:07-2351336<br>ADD:800台灣高雄市新興區林森一路266號]]></description>
        <styleUrl>#icon-503-DB4436-labelson</styleUrl>
        <Point>
          <coordinates>
            120.3052146,22.6359868,0
          </coordinates>
        </Point>
      </Placemark>
      <Placemark>
        <name>50嵐三多光華店</name>
        <description><![CDATA[TEL:07-7264285<br>ADD:802台灣高雄市苓雅區三多二路345號]]></description>
        <styleUrl>#icon-503-DB4436-labelson</styleUrl>
        <Point>
          <coordinates>
            120.318261,22.61834,0
          </coordinates>
        </Point>
      </Placemark>
      <Placemark>
        <name>50嵐林園東林店</name>
        <description><![CDATA[TEL:07-6421555<br>ADD:832台灣高雄市林園區東林西路189號]]></description>
        <styleUrl>#icon-503-DB4436-labelson</styleUrl>
        <Point>
          <coordinates>
            120.3919831,22.5034181,0
          </coordinates>
        </Point>
      </Placemark>
      <Placemark>
        <name>50嵐德民店</name>
        <description><![CDATA[TEL:07-3010391<br>ADD:811台灣高雄市楠梓區德民路915號]]></description>
        <styleUrl>#icon-503-DB4436-labelson</styleUrl>
        <Point>
          <coordinates>
            120.2896112,22.7208961,0
          </coordinates>
        </Point>
      </Placemark>
      <Placemark>
        <name>50嵐大明店</name>
        <description><![CDATA[TEL:07-7637566<br>ADD:830台灣高雄市鳳山區大明路232號]]></description>
        <styleUrl>#icon-503-DB4436-labelson</styleUrl>
        <Point>
          <coordinates>
            120.3415843,22.6119218,0
          </coordinates>
        </Point>
      </Placemark>
      <Placemark>
        <name>50嵐梓官中崙店</name>
        <description><![CDATA[TEL:07-6191718<br>ADD:826台灣高雄市梓官區中崙路245號]]></description>
        <styleUrl>#icon-503-DB4436-labelson</styleUrl>
        <Point>
          <coordinates>
            120.2692183,22.7610792,0
          </coordinates>
        </Point>
      </Placemark>
      <Placemark>
        <name>50嵐大寮國小店</name>
        <description><![CDATA[TEL:07-7887297<br>ADD:831台灣高雄市大寮區大寮路773號]]></description>
        <styleUrl>#icon-503-DB4436-labelson</styleUrl>
        <Point>
          <coordinates>
            120.4162302,22.5913066,0
          </coordinates>
        </Point>
      </Placemark>
      <Placemark>
        <name>50嵐五甲夜市店</name>
        <description><![CDATA[TEL:07-7684269<br>ADD:830台灣高雄市鳳山區自強二路155號]]></description>
        <styleUrl>#icon-503-DB4436-labelson</styleUrl>
        <Point>
          <coordinates>
            120.3271532,22.5967652,0
          </coordinates>
        </Point>
      </Placemark>
      <Placemark>
        <name>50嵐燕巢中民店</name>
        <description><![CDATA[TEL:07-6143636<br>ADD:824台灣高雄市燕巢區中民路732號]]></description>
        <styleUrl>#icon-503-DB4436-labelson</styleUrl>
        <Point>
          <coordinates>
            120.3584109,22.7930536,0
          </coordinates>
        </Point>
      </Placemark>
      <Placemark>
        <name>50嵐仁美店</name>
        <description><![CDATA[TEL:07-7311896<br>ADD:833台灣高雄市鳥松區學堂路26號]]></description>
        <styleUrl>#icon-503-DB4436-labelson</styleUrl>
        <Point>
          <coordinates>
            120.3922526,22.6584136,0
          </coordinates>
        </Point>
      </Placemark>
      <Placemark>
        <name>50嵐鳳山光復店</name>
        <description><![CDATA[TEL:07-7997227<br>ADD:830台灣高雄市鳳山區光復路一段68號]]></description>
        <styleUrl>#icon-503-DB4436-labelson</styleUrl>
        <Point>
          <coordinates>
            120.352236,22.629292,0
          </coordinates>
        </Point>
      </Placemark>
      <Placemark>
        <name>50嵐久堂店</name>
        <description><![CDATA[TEL:07-6523095<br>ADD:840台灣高雄市大樹區久堂路湖底二巷29號]]></description>
        <styleUrl>#icon-503-DB4436-labelson</styleUrl>
        <Point>
          <coordinates>
            120.4156917,22.6582084,0
          </coordinates>
        </Point>
      </Placemark>
      <Placemark>
        <name>50嵐美濃泰安店</name>
        <description><![CDATA[TEL:07-6821199<br>ADD:843台灣高雄市美濃區泰安路56號1樓]]></description>
        <styleUrl>#icon-503-DB4436-labelson</styleUrl>
        <Point>
          <coordinates>
            120.5392265,22.9018159,0
          </coordinates>
        </Point>
      </Placemark>
      <Placemark>
        <name>50嵐美術東八店</name>
        <description><![CDATA[TEL:07-5505186<br>ADD:804台灣高雄市鼓山區美術東八街125號]]></description>
        <styleUrl>#icon-503-DB4436-labelson</styleUrl>
        <Point>
          <coordinates>
            120.2911566,22.6540911,0
          </coordinates>
        </Point>
      </Placemark>
      <Placemark>
        <name>50嵐大灣國中店</name>
        <description><![CDATA[TEL:07-3737599<br>ADD:814台灣高雄市仁武區八德南路492號]]></description>
        <styleUrl>#icon-503-DB4436-labelson</styleUrl>
        <Point>
          <coordinates>
            120.3408158,22.6772232,0
          </coordinates>
        </Point>
      </Placemark>
      <Placemark>
        <name>50嵐枋寮中山店</name>
        <description><![CDATA[TEL:08-8786700<br>ADD:940台灣屏東縣枋寮鄉中山路205號]]></description>
        <styleUrl>#icon-503-DB4436-labelson</styleUrl>
        <Point>
          <coordinates>
            120.5979663,22.3633802,0
          </coordinates>
        </Point>
      </Placemark>
      <Placemark>
        <name>50嵐鳳楠店</name>
        <description><![CDATA[TEL:07-3553700<br>ADD:811台灣高雄市楠梓區鳳楠路265號]]></description>
        <styleUrl>#icon-503-DB4436-labelson</styleUrl>
        <Point>
          <coordinates>
            120.3291657,22.7261373,0
          </coordinates>
        </Point>
      </Placemark>
      <Placemark>
        <name>50嵐鳳山中崙店</name>
        <description><![CDATA[TEL:07-7556679<br>ADD:830台灣高雄市鳳山區中崙二路560號]]></description>
        <styleUrl>#icon-503-DB4436-labelson</styleUrl>
        <Point>
          <coordinates>
            120.3529182,22.6024091,0
          </coordinates>
        </Point>
      </Placemark>
      <Placemark>
        <name>50嵐五福鹽埕店</name>
        <description><![CDATA[TEL:07-5516001<br>ADD:803台灣高雄市鹽埕區五福四路134號]]></description>
        <styleUrl>#icon-503-DB4436-labelson</styleUrl>
        <Point>
          <coordinates>
            120.2851429,22.6229835,0
          </coordinates>
        </Point>
      </Placemark>
      <Placemark>
        <name>50嵐中正神農店</name>
        <description><![CDATA[TEL:07-7355863<br>ADD:高雄市鳥松區中正路54號]]></description>
        <styleUrl>#icon-503-DB4436-labelson</styleUrl>
        <Point>
          <coordinates>
            120.3643615,22.6586964,0
          </coordinates>
        </Point>
      </Placemark>
      <Placemark>
        <name>50嵐夢時代鎮興店</name>
        <description><![CDATA[TEL:07-8410838<br>ADD:806台灣高雄市前鎮區鎮興路232號]]></description>
        <styleUrl>#icon-503-DB4436-labelson</styleUrl>
        <Point>
          <coordinates>
            120.3115538,22.5931473,0
          </coordinates>
        </Point>
      </Placemark>
      <Placemark>
        <name>50嵐楠梓樂群店</name>
        <description><![CDATA[TEL:07-3616658<br>ADD:811台灣高雄市楠梓區樂群路152號]]></description>
        <styleUrl>#icon-503-DB4436-labelson</styleUrl>
        <Point>
          <coordinates>
            120.2972818,22.7182741,0
          </coordinates>
        </Point>
      </Placemark>
      <Placemark>
        <name>50嵐屏大民生店</name>
        <description><![CDATA[TEL:08-7237778<br>ADD:900台灣屏東縣屏東市民生路39號]]></description>
        <styleUrl>#icon-503-DB4436-labelson</styleUrl>
        <Point>
          <coordinates>
            120.5070849,22.6623088,0
          </coordinates>
        </Point>
      </Placemark>
      <Placemark>
        <name>50嵐獅湖國小店</name>
        <description><![CDATA[TEL:07-3595500<br>ADD:807台灣高雄市三民區鼎中路753-2號]]></description>
        <styleUrl>#icon-503-DB4436-labelson</styleUrl>
        <Point>
          <coordinates>
            120.3216746,22.6741891,0
          </coordinates>
        </Point>
      </Placemark>
      <Placemark>
        <name>50嵐鳳山埤頂店</name>
        <description><![CDATA[TEL:07-7012250<br>ADD:830台灣高雄市鳳山區中山東路547號]]></description>
        <styleUrl>#icon-503-DB4436-labelson</styleUrl>
        <Point>
          <coordinates>
            120.3814053,22.6289809,0
          </coordinates>
        </Point>
      </Placemark>
      <Placemark>
        <name>50嵐八卦寮店</name>
        <description><![CDATA[TEL:07-3737399<br>ADD:814台灣高雄市仁武區八德南路65號]]></description>
        <styleUrl>#icon-503-DB4436-labelson</styleUrl>
        <Point>
          <coordinates>
            120.3394969,22.6848777,0
          </coordinates>
        </Point>
      </Placemark>
      <Placemark>
        <name>50嵐恆春恆南店</name>
        <description><![CDATA[TEL:08-8899336<br>ADD:946台灣屏東縣恆春鎮恆南路161號]]></description>
        <styleUrl>#icon-503-DB4436-labelson</styleUrl>
        <Point>
          <coordinates>
            120.7444319,21.9983059,0
          </coordinates>
        </Point>
      </Placemark>
      <Placemark>
        <name>50嵐藍昌店</name>
        <description><![CDATA[TEL:07-5915060<br>ADD:811台灣高雄市楠梓區藍昌路398-12號]]></description>
        <styleUrl>#icon-503-DB4436-labelson</styleUrl>
        <Point>
          <coordinates>
            120.2917852,22.7268251,0
          </coordinates>
        </Point>
      </Placemark>
      <Placemark>
        <name>50嵐正言店</name>
        <description><![CDATA[TEL:07-7528299<br>ADD:802台灣高雄市苓雅區正言路44號]]></description>
        <styleUrl>#icon-503-DB4436-labelson</styleUrl>
        <Point>
          <coordinates>
            120.3298379,22.6303024,0
          </coordinates>
        </Point>
      </Placemark>
      <Placemark>
        <name>50嵐阿蓮忠孝店</name>
        <description><![CDATA[TEL:07-6317188<br>ADD:822台灣高雄市阿蓮區忠孝路132號]]></description>
        <styleUrl>#icon-503-DB4436-labelson</styleUrl>
        <Point>
          <coordinates>
            120.3312538,22.8791012,0
          </coordinates>
        </Point>
      </Placemark>
      <Placemark>
        <name>50嵐惠民店</name>
        <description><![CDATA[TEL:07-3630666<br>ADD:811台灣高雄市楠梓區惠民路88-2號]]></description>
        <styleUrl>#icon-503-DB4436-labelson</styleUrl>
        <Point>
          <coordinates>
            120.2974903,22.724322,0
          </coordinates>
        </Point>
      </Placemark>
      <Placemark>
        <name>50嵐屏東棒球路店</name>
        <description><![CDATA[TEL:08-7538188<br>ADD:900台灣屏東縣屏東市棒球路228號]]></description>
        <styleUrl>#icon-503-DB4436-labelson</styleUrl>
        <Point>
          <coordinates>
            120.4814105,22.6559155,0
          </coordinates>
        </Point>
      </Placemark>
      <Placemark>
        <name>50嵐屏東萬丹店</name>
        <description><![CDATA[TEL:08-7770829<br>ADD:屏東市萬丹鄉萬丹路一段252號]]></description>
        <styleUrl>#icon-503-DB4436-labelson</styleUrl>
        <Point>
          <coordinates>
            120.490003,22.5883582,0
          </coordinates>
        </Point>
      </Placemark>
      <Placemark>
        <name>50嵐樹科大鳳旗店</name>
        <description><![CDATA[TEL:07-6151015<br>ADD:824台灣高雄市燕巢區鳳旗路163號]]></description>
        <styleUrl>#icon-503-DB4436-labelson</styleUrl>
        <Point>
          <coordinates>
            120.3556295,22.7541459,0
          </coordinates>
        </Point>
      </Placemark>
      <Placemark>
        <name>50嵐五甲國泰店</name>
        <description><![CDATA[TEL:07-7409502<br>ADD:830台灣高雄市鳳山區五甲一路222號]]></description>
        <styleUrl>#icon-503-DB4436-labelson</styleUrl>
        <Point>
          <coordinates>
            120.3550338,22.6184461,0
          </coordinates>
        </Point>
      </Placemark>
      <Placemark>
        <name>50嵐內埔天后店</name>
        <description><![CDATA[TEL:08-7786558<br>ADD:946台灣屏東縣內埔鄉內埔村廣濟路154號]]></description>
        <styleUrl>#icon-503-DB4436-labelson</styleUrl>
        <Point>
          <coordinates>
            120.5663644,22.6150819,0
          </coordinates>
        </Point>
      </Placemark>
      <Placemark>
        <name>50嵐屏東潮州延平店</name>
        <description><![CDATA[TEL:08-7899601<br>ADD:屏東縣潮州鎮延平路138號]]></description>
        <styleUrl>#icon-503-DB4436-labelson</styleUrl>
        <Point>
          <coordinates>
            120.540558,22.554892,0
          </coordinates>
        </Point>
      </Placemark>
      <Placemark>
        <name>50嵐鹽埔新圍店</name>
        <description><![CDATA[TEL:08-7938228<br>ADD:907屏東縣鹽埔鄉維新路171號]]></description>
        <styleUrl>#icon-503-DB4436-labelson</styleUrl>
        <Point>
          <coordinates>
            120.5576565,22.7425915,0
          </coordinates>
        </Point>
      </Placemark>
      <Placemark>
        <name>50嵐義華店</name>
        <description><![CDATA[TEL:07-3820319<br>ADD:807台灣高雄市三民區義華路276號]]></description>
        <styleUrl>#icon-503-DB4436-labelson</styleUrl>
        <Point>
          <coordinates>
            120.3359091,22.6436093,0
          </coordinates>
        </Point>
      </Placemark>
      <Placemark>
        <name>50嵐屏科大中林店</name>
        <description><![CDATA[TEL:08-7705955<br>ADD:屏東縣內埔鄉中林村15鄰中林路11-2號]]></description>
        <styleUrl>#icon-503-DB4436-labelson</styleUrl>
        <Point>
          <coordinates>
            120.5954835,22.641301,0
          </coordinates>
        </Point>
      </Placemark>
      <Placemark>
        <name>50嵐大樹中興店</name>
        <description><![CDATA[TEL:07-6520820<br>ADD:840高雄市大樹區中興西路99號]]></description>
        <styleUrl>#icon-503-DB4436-labelson</styleUrl>
        <Point>
          <coordinates>
            120.4287781,22.6917906,0
          </coordinates>
        </Point>
      </Placemark>
      <Placemark>
        <name>50嵐社皮大昌店</name>
        <description><![CDATA[TEL:08-7075050<br>ADD:913屏東縣萬丹鄉大昌路410號]]></description>
        <styleUrl>#icon-503-DB4436-labelson</styleUrl>
        <Point>
          <coordinates>
            120.4714437,22.6154043,0
          </coordinates>
        </Point>
      </Placemark>
      <Placemark>
        <name>50嵐大武營建國店</name>
        <description><![CDATA[TEL:08-7538006<br>ADD:900屏東縣屏東市建國路149-1號]]></description>
        <styleUrl>#icon-503-DB4436-labelson</styleUrl>
        <Point>
          <coordinates>
            120.478292,22.6652804,0
          </coordinates>
        </Point>
      </Placemark>
      <Placemark>
        <name>50嵐潮州新生店</name>
        <description><![CDATA[TEL:08-7890550<br>ADD:920屏東縣潮州鎮新生路67號]]></description>
        <styleUrl>#icon-503-DB4436-labelson</styleUrl>
        <Point>
          <coordinates>
            120.538229,22.549087,0
          </coordinates>
        </Point>
      </Placemark>
      <Placemark>
        <name>50嵐屏東九如店</name>
        <description><![CDATA[TEL:08-7390010<br>ADD:904屏東縣九如鄉九如路二段239號]]></description>
        <styleUrl>#icon-503-DB4436-labelson</styleUrl>
        <Point>
          <coordinates>
            120.4891927,22.7357635,0
          </coordinates>
        </Point>
      </Placemark>
      <Placemark>
        <name>50嵐新園仙吉店</name>
        <description><![CDATA[TEL:08-8685050<br>ADD:932屏東縣新園鄉仙吉村4鄰仙吉路63號]]></description>
        <styleUrl>#icon-503-DB4436-labelson</styleUrl>
        <Point>
          <coordinates>
            120.4603454,22.5424148,0
          </coordinates>
        </Point>
      </Placemark>
      <Placemark>
        <name>50嵐恆春中正店</name>
        <description><![CDATA[TEL:08-8882980<br>ADD:946屏東縣恆春鎮中正路76號]]></description>
        <styleUrl>#icon-503-DB4436-labelson</styleUrl>
        <Point>
          <coordinates>
            120.7447327,22.0031717,0
          </coordinates>
        </Point>
      </Placemark>
      <Placemark>
        <name>50嵐小琉球店</name>
        <description><![CDATA[TEL:08-8612985<br>ADD:929屏東縣琉球鄉民生路17-2號]]></description>
        <styleUrl>#icon-503-DB4436-labelson</styleUrl>
        <Point>
          <coordinates>
            120.3801897,22.3519236,0
          </coordinates>
        </Point>
      </Placemark>
      <Placemark>
        <name>50嵐高樹興中店</name>
        <description><![CDATA[TEL:08-7965008<br>ADD:906屏東縣高樹鄉興中路287號]]></description>
        <styleUrl>#icon-503-DB4436-labelson</styleUrl>
        <Point>
          <coordinates>
            120.6003022,22.825391,0
          </coordinates>
        </Point>
      </Placemark>
      <Placemark>
        <name>50嵐屏東中正自由店</name>
        <description><![CDATA[TEL:08-7367022<br>ADD:900屏東縣屏東市中正路348號]]></description>
        <styleUrl>#icon-503-DB4436-labelson</styleUrl>
        <Point>
          <coordinates>
            120.4921259,22.6823368,0
          </coordinates>
        </Point>
      </Placemark>
      <Placemark>
        <name>50嵐旗山轉運店</name>
        <description><![CDATA[TEL:07-6629555<br>ADD:842高雄市旗山區延平一路750號]]></description>
        <styleUrl>#icon-503-DB4436-labelson</styleUrl>
        <Point>
          <coordinates>
            120.4840625,22.8822921,0
          </coordinates>
        </Point>
      </Placemark>
      <Placemark>
        <name>50嵐內埔龍泉店</name>
        <description><![CDATA[TEL:08-7700838<br>ADD:屏東縣內埔鄉龍潭村昭勝路404號]]></description>
        <styleUrl>#icon-503-DB4436-labelson</styleUrl>
        <Point>
          <coordinates>
            120.601189,22.6773346,0
          </coordinates>
        </Point>
      </Placemark>
      <Placemark>
        <name>50嵐88過勇店</name>
        <description><![CDATA[TEL:07-7928612<br>ADD:830高雄市鳳山區過勇路206號]]></description>
        <styleUrl>#icon-503-DB4436-labelson</styleUrl>
        <Point>
          <coordinates>
            120.3628753,22.5896981,0
          </coordinates>
        </Point>
      </Placemark>
      <Placemark>
        <name>50嵐林邊國小店</name>
        <description><![CDATA[TEL:08-8755520<br>ADD:927屏東縣林邊鄉中山路159號]]></description>
        <styleUrl>#icon-503-DB4436-labelson</styleUrl>
        <Point>
          <coordinates>
            120.5174615,22.4326132,0
          </coordinates>
        </Point>
      </Placemark>
      <Placemark>
        <name>50嵐鳳商車站店</name>
        <description><![CDATA[TEL:07-7993377<br>ADD:830高雄市鳳山區文衡路27號]]></description>
        <styleUrl>#icon-503-DB4436-labelson</styleUrl>
        <Point>
          <coordinates>
            120.357778,22.632842,0
          </coordinates>
        </Point>
      </Placemark>
      <Placemark>
        <name>50嵐麟洛中山成功店</name>
        <description><![CDATA[TEL:08-7215850<br>ADD:909屏東縣麟洛鄉中山路238號]]></description>
        <styleUrl>#icon-503-DB4436-labelson</styleUrl>
        <Point>
          <coordinates>
            120.5252215,22.6521658,0
          </coordinates>
        </Point>
      </Placemark>
      <Placemark>
        <name>50嵐中山中正店</name>
        <description><![CDATA[TEL:07-2857757<br>ADD:800高雄市新興區中山橫路6號]]></description>
        <styleUrl>#icon-503-DB4436-labelson</styleUrl>
        <Point>
          <coordinates>
            120.3014835,22.6320277,0
          </coordinates>
        </Point>
      </Placemark>
      <Placemark>
        <name>50嵐屏東崇蘭廣東店</name>
        <description><![CDATA[TEL:08-7325600<br>ADD:900屏東縣屏東市廣東路1112號]]></description>
        <styleUrl>#icon-503-DB4436-labelson</styleUrl>
        <Point>
          <coordinates>
            120.4827624,22.6875998,0
          </coordinates>
        </Point>
      </Placemark>
      <Placemark>
        <name>50嵐里港仁和店</name>
        <description><![CDATA[TEL:08-7750686<br>ADD:905屏東縣里港鄉仁和路15號]]></description>
        <styleUrl>#icon-503-DB4436-labelson</styleUrl>
        <Point>
          <coordinates>
            120.4939277,22.7770508,0
          </coordinates>
        </Point>
      </Placemark>
      <Placemark>
        <name>50嵐光明新厝店</name>
        <description><![CDATA[TEL:07-7888055<br>ADD:831高雄市大寮區光明路一段15號]]></description>
        <styleUrl>#icon-503-DB4436-labelson</styleUrl>
        <Point>
          <coordinates>
            120.4123611,22.5614843,0
          </coordinates>
        </Point>
      </Placemark>
      <Placemark>
        <name>50嵐萬巒褒忠店</name>
        <description><![CDATA[TEL:08-7812889<br>ADD:923屏東縣萬巒鄉褒忠路102號]]></description>
        <styleUrl>#icon-503-DB4436-labelson</styleUrl>
        <Point>
          <coordinates>
            120.5694512,22.5732446,0
          </coordinates>
        </Point>
      </Placemark>
      <Placemark>
        <name>50嵐鳳山建國店</name>
        <description><![CDATA[TEL:07-7101616<br>ADD:830台灣高雄市鳳山區建國路3段255號]]></description>
        <styleUrl>#icon-503-DB4436-labelson</styleUrl>
        <Point>
          <coordinates>
            120.3516622,22.6372037,0
          </coordinates>
        </Point>
      </Placemark>
      <Placemark>
        <name>50嵐大社國中店</name>
        <description><![CDATA[TEL:07-3544450<br>ADD:815高雄市大社區中山路521-25號]]></description>
        <styleUrl>#icon-503-DB4436-labelson</styleUrl>
        <Point>
          <coordinates>
            120.3567692,22.7309411,0
          </coordinates>
        </Point>
      </Placemark>
      <Placemark>
        <name>50嵐旗楠安泰店</name>
        <description><![CDATA[TEL:07-3528268<br>ADD:811高雄市楠梓區旗楠路907-12號]]></description>
        <styleUrl>#icon-503-DB4436-labelson</styleUrl>
        <Point>
          <coordinates>
            120.3392918,22.7427587,0
          </coordinates>
        </Point>
      </Placemark>
      <Placemark>
        <name>50嵐高雄長庚店</name>
        <description><![CDATA[TEL:07-7356150<br>ADD:833高雄市鳥松區大埤路123-10號]]></description>
        <styleUrl>#icon-503-DB4436-labelson</styleUrl>
        <Point>
          <coordinates>
            120.3567999,22.6504342,0
          </coordinates>
        </Point>
      </Placemark>
      <Placemark>
        <name>50嵐惠心店</name>
        <description><![CDATA[TEL:07-3649955<br>ADD:811高雄市楠梓區惠心街82號]]></description>
        <styleUrl>#icon-503-DB4436-labelson</styleUrl>
        <Point>
          <coordinates>
            120.3225035,22.7295446,0
          </coordinates>
        </Point>
      </Placemark>
      <Placemark>
        <name>50嵐林森店</name>
        <description><![CDATA[TEL:07-5360365<br>ADD:802高雄市苓雅區林森二路11-5號]]></description>
        <styleUrl>#icon-503-DB4436-labelson</styleUrl>
        <Point>
          <coordinates>
            120.30783,22.6166442,0
          </coordinates>
        </Point>
      </Placemark>
      <Placemark>
        <name>50嵐蚵仔寮店</name>
        <description><![CDATA[TEL:07-6101610<br>ADD:826高雄市梓官區漁港一路122號]]></description>
        <styleUrl>#icon-503-DB4436-labelson</styleUrl>
        <Point>
          <coordinates>
            120.2555732,22.7274421,0
          </coordinates>
        </Point>
      </Placemark>
      <Placemark>
        <name>50嵐山東店</name>
        <description><![CDATA[TEL:07-3125080<br>ADD:807高雄市三民區山東街124號]]></description>
        <styleUrl>#icon-503-DB4436-labelson</styleUrl>
        <Point>
          <coordinates>
            120.311641,22.6436953,0
          </coordinates>
        </Point>
      </Placemark>
      <Placemark>
        <name>50嵐大寮輔英店</name>
        <description><![CDATA[TEL:07-7835070<br>ADD:831高雄市大寮區鳳林三路400號]]></description>
        <styleUrl>#icon-503-DB4436-labelson</styleUrl>
        <Point>
          <coordinates>
            120.3964195,22.6034648,0
          </coordinates>
        </Point>
      </Placemark>
      <Placemark>
        <name>50嵐草衙店</name>
        <description><![CDATA[TEL:07-8138448<br>ADD:806高雄市前鎮區草衙二路445號]]></description>
        <styleUrl>#icon-503-DB4436-labelson</styleUrl>
        <Point>
          <coordinates>
            120.3226262,22.5797596,0
          </coordinates>
        </Point>
      </Placemark>
      <Placemark>
        <name>50嵐裕誠明誠店</name>
        <description><![CDATA[TEL:07-3228632<br>ADD:804高雄市鼓山區裕誠路1646號]]></description>
        <styleUrl>#icon-503-DB4436-labelson</styleUrl>
        <Point>
          <coordinates>
            120.2941494,22.6615114,0
          </coordinates>
        </Point>
      </Placemark>
      <Placemark>
        <name>50嵐正義店</name>
        <description><![CDATA[TEL:07-3800700<br>ADD:高雄市苓雅區正義路92號]]></description>
        <styleUrl>#icon-503-DB4436-labelson</styleUrl>
        <Point>
          <coordinates>
            120.3387137,22.6301134,0
          </coordinates>
        </Point>
      </Placemark>
      <Placemark>
        <name>50嵐二聖英明店</name>
        <description><![CDATA[TEL:07-7226805<br>ADD:806台灣高雄市前鎮區竹東里二聖一路63號]]></description>
        <styleUrl>#icon-503-DB4436-labelson</styleUrl>
        <Point>
          <coordinates>
            120.3252955,22.6118454,0
          </coordinates>
        </Point>
      </Placemark>
      <Placemark>
        <name>50嵐橋頭店</name>
        <description><![CDATA[TEL:07-6130099<br>ADD:825台灣高雄市橋頭區橋南路100號]]></description>
        <styleUrl>#icon-503-DB4436-labelson</styleUrl>
        <Point>
          <coordinates>
            120.3121711,22.7547784,0
          </coordinates>
        </Point>
      </Placemark>
      <Placemark>
        <name>50嵐彌陀中正店</name>
        <description><![CDATA[TEL:07-6105573<br>ADD:827台灣高雄市彌陀區彌靖里中正路159號]]></description>
        <styleUrl>#icon-503-DB4436-labelson</styleUrl>
        <Point>
          <coordinates>
            120.2487664,22.7825822,0
          </coordinates>
        </Point>
      </Placemark>
      <Placemark>
        <name>50嵐自強建國店</name>
        <description><![CDATA[TEL:07-2163666<br>ADD:807高雄市三民區自強一路209號]]></description>
        <styleUrl>#icon-503-DB4436-labelson</styleUrl>
        <Point>
          <coordinates>
            120.291357,22.635002,0
          </coordinates>
        </Point>
      </Placemark>
      <Placemark>
        <name>50嵐建工店</name>
        <description><![CDATA[TEL:07-3807097<br>ADD:807高雄市三民區建工路616號]]></description>
        <styleUrl>#icon-503-DB4436-labelson</styleUrl>
        <Point>
          <coordinates>
            120.3228236,22.6493268,0
          </coordinates>
        </Point>
      </Placemark>
      <Placemark>
        <name>50嵐橋頭隆豐店</name>
        <description><![CDATA[TEL:07-6130077<br>ADD:825高雄市橋頭區隆豐路155號]]></description>
        <styleUrl>#icon-503-DB4436-labelson</styleUrl>
        <Point>
          <coordinates>
            120.3067404,22.7546607,0
          </coordinates>
        </Point>
      </Placemark>
      <Placemark>
        <name>50嵐恆春西門店</name>
        <description><![CDATA[TEL:08-8882424<br>ADD:946屏東縣恆春鎮西門路37號]]></description>
        <styleUrl>#icon-503-DB4436-labelson</styleUrl>
        <Point>
          <coordinates>
            120.7429789,22.0064013,0
          </coordinates>
        </Point>
      </Placemark>
      <Placemark>
        <name>50嵐店北漢民店</name>
        <description><![CDATA[TEL:07-8030589<br>ADD:812高雄市小港區店北路220號]]></description>
        <styleUrl>#icon-503-DB4436-labelson</styleUrl>
        <Point>
          <coordinates>
            120.3509935,22.5639532,0
          </coordinates>
        </Point>
      </Placemark>
    </Folder>
  </Document>
</kml>
