<?xml version="1.0" encoding="UTF-8"?>
<kml xmlns="http://www.opengis.net/kml/2.2">
  <Document>
    <name>50嵐-中區門市據點(完整版)</name>
    <description><![CDATA[50嵐中區門市據點，本資料不定期更新！<br>顯示範圍桃園以南嘉義以北含外島金門澎湖<br>2025/12更新，感謝善心人士的提醒，<br>地圖如有任何錯誤，歡迎指正。<br>]]></description>
    <Style id="icon-503-DB4436-normal">
      <IconStyle>
        <color>ff3644db</color>
        <scale>1.1</scale>
        <Icon>
          <href>https://www.gstatic.com/mapspro/images/stock/503-wht-blank_maps.png</href>
        </Icon>
        <hotSpot x="16" xunits="pixels" y="32" yunits="insetPixels"/>
      </IconStyle>
      <LabelStyle>
        <scale>0</scale>
      </LabelStyle>
    </Style>
    <Style id="icon-503-DB4436-highlight">
      <IconStyle>
        <color>ff3644db</color>
        <scale>1.1</scale>
        <Icon>
          <href>https://www.gstatic.com/mapspro/images/stock/503-wht-blank_maps.png</href>
        </Icon>
        <hotSpot x="16" xunits="pixels" y="32" yunits="insetPixels"/>
      </IconStyle>
      <LabelStyle>
        <scale>1.1</scale>
      </LabelStyle>
    </Style>
    <StyleMap id="icon-503-DB4436">
      <Pair>
        <key>normal</key>
        <styleUrl>#icon-503-DB4436-normal</styleUrl>
      </Pair>
      <Pair>
        <key>highlight</key>
        <styleUrl>#icon-503-DB4436-highlight</styleUrl>
      </Pair>
    </StyleMap>
    <Style id="icon-503-DB4436-labelson">
      <IconStyle>
        <color>ff3644db</color>
        <scale>1.1</scale>
        <Icon>
          <href>https://www.gstatic.com/mapspro/images/stock/503-wht-blank_maps.png</href>
        </Icon>
        <hotSpot x="16" xunits="pixels" y="32" yunits="insetPixels"/>
      </IconStyle>
    </Style>
    <Folder>
      <name>50嵐-桃園縣市</name>
      <Placemark>
        <name>50嵐(大溪慈湖店)</name>
        <description><![CDATA[地址:335桃園市大溪區復興路24號<br>電話:03-3874293]]></description>
        <styleUrl>#icon-503-DB4436</styleUrl>
        <Point>
          <coordinates>
            121.2893705,24.8804953,0
          </coordinates>
        </Point>
      </Placemark>
      <Placemark>
        <name>50嵐(中壢福州店)</name>
        <description><![CDATA[地址:桃園市中壢區福州二街527號<br>電話:03-4555882]]></description>
        <styleUrl>#icon-503-DB4436</styleUrl>
        <Point>
          <coordinates>
            121.2353274,24.968679,0
          </coordinates>
        </Point>
      </Placemark>
      <Placemark>
        <name>50嵐( 中壢元智店)
</name>
        <description><![CDATA[320桃園市中壢區興仁路二段130號1樓<br>03-2855055]]></description>
        <styleUrl>#icon-503-DB4436</styleUrl>
        <Point>
          <coordinates>
            121.2628072,24.9659144,0
          </coordinates>
        </Point>
      </Placemark>
      <Placemark>
        <name>50嵐(中壢新生店）</name>
        <description><![CDATA[地址:320桃園市中壢區新生路162號<br>電話:03-4229393]]></description>
        <styleUrl>#icon-503-DB4436</styleUrl>
        <Point>
          <coordinates>
            121.2231325,24.9610076,0
          </coordinates>
        </Point>
      </Placemark>
      <Placemark>
        <name>50嵐(中壢新明店)</name>
        <description><![CDATA[地址:320桃園市中壢區新明路54號<br>電話:03-4939820]]></description>
        <styleUrl>#icon-503-DB4436</styleUrl>
        <Point>
          <coordinates>
            121.2152153,24.9583339,0
          </coordinates>
        </Point>
      </Placemark>
      <Placemark>
        <name>50嵐(中壢延平店)</name>
        <description><![CDATA[地址:320桃園市中壢區延平路280號<br>電話:03-2807676 、03-4252020]]></description>
        <styleUrl>#icon-503-DB4436</styleUrl>
        <Point>
          <coordinates>
            121.2260272,24.9612568,0
          </coordinates>
        </Point>
      </Placemark>
      <Placemark>
        <name>50嵐(中壢中原店)</name>
        <description><![CDATA[地址:320桃園市中壢區日新路8號<br>電話:03-4362888]]></description>
        <styleUrl>#icon-503-DB4436</styleUrl>
        <Point>
          <coordinates>
            121.2385954,24.9538844,0
          </coordinates>
        </Point>
      </Placemark>
      <Placemark>
        <name>50嵐(中壢站前店）</name>
        <description><![CDATA[320桃園市中壢區和平街25號<br>03-4275577]]></description>
        <styleUrl>#icon-503-DB4436</styleUrl>
        <Point>
          <coordinates>
            121.2259655,24.9551097,0
          </coordinates>
        </Point>
      </Placemark>
      <Placemark>
        <name>50嵐(內壢忠孝店)</name>
        <description><![CDATA[地址:320桃園市中壢區忠孝路56號<br>電話:03-4525685]]></description>
        <styleUrl>#icon-503-DB4436</styleUrl>
        <Point>
          <coordinates>
            121.2563469,24.9733313,0
          </coordinates>
        </Point>
      </Placemark>
      <Placemark>
        <name>50嵐(中壢龍崗店)</name>
        <description><![CDATA[桃園市中壢區龍東路223號<br>03-2830586]]></description>
        <styleUrl>#icon-503-DB4436</styleUrl>
        <Point>
          <coordinates>
            121.2537425,24.9303775,0
          </coordinates>
        </Point>
      </Placemark>
      <Placemark>
        <name>50嵐(內壢長春店）</name>
        <description><![CDATA[03-4630678<br>桃園市中壢區長春路75號]]></description>
        <styleUrl>#icon-503-DB4436</styleUrl>
        <Point>
          <coordinates>
            121.248921,24.9784569,0
          </coordinates>
        </Point>
      </Placemark>
      <Placemark>
        <name>50嵐(楊梅大成店)</name>
        <description><![CDATA[地址:326桃園市楊梅區大成路204號<br>電話:03-2888455]]></description>
        <styleUrl>#icon-503-DB4436</styleUrl>
        <Point>
          <coordinates>
            121.1459479,24.9126485,0
          </coordinates>
        </Point>
      </Placemark>
      <Placemark>
        <name>50嵐(埔心中興店)</name>
        <description>03-4818881 桃園市楊梅區埔心里中興路103號</description>
        <styleUrl>#icon-503-DB4436</styleUrl>
        <Point>
          <coordinates>
            121.1850477,24.9173208,0
          </coordinates>
        </Point>
      </Placemark>
      <Placemark>
        <name>50嵐(桃園大興店)</name>
        <description><![CDATA[地址:330桃園市桃園區大業路一段405號<br>電話:03-3572668]]></description>
        <styleUrl>#icon-503-DB4436</styleUrl>
        <Point>
          <coordinates>
            121.310315,25.0158042,0
          </coordinates>
        </Point>
      </Placemark>
      <Placemark>
        <name>50嵐(桃園中正店)
</name>
        <description><![CDATA[地址:330桃園市桃園區中正路542號<br>電話:03-3315282]]></description>
        <styleUrl>#icon-503-DB4436</styleUrl>
        <Point>
          <coordinates>
            121.3059135,25.0033838,0
          </coordinates>
        </Point>
      </Placemark>
      <Placemark>
        <name>50嵐(桃園中山東店)</name>
        <description><![CDATA[桃園市桃園區中山東路40號<br>03-3359880]]></description>
        <styleUrl>#icon-503-DB4436</styleUrl>
        <Point>
          <coordinates>
            121.3164865,24.9964231,0
          </coordinates>
        </Point>
      </Placemark>
      <Placemark>
        <name>50嵐(桃園桃鶯店)</name>
        <description><![CDATA[桃園市桃園區桃鶯路97號<br>電話：03-3632123]]></description>
        <styleUrl>#icon-503-DB4436</styleUrl>
        <Point>
          <coordinates>
            121.317811,24.9873891,0
          </coordinates>
        </Point>
      </Placemark>
      <Placemark>
        <name>50嵐(桃園南崁店)</name>
        <description><![CDATA[地址:338桃園市蘆竹區南崁路270號<br>電話:03-2126112]]></description>
        <styleUrl>#icon-503-DB4436</styleUrl>
        <Point>
          <coordinates>
            121.2929799,25.0497264,0
          </coordinates>
        </Point>
      </Placemark>
      <Placemark>
        <name>50嵐(南崁忠孝西店)</name>
        <description><![CDATA[地址:338桃園市蘆竹區忠孝西路170號<br>電話:03-3520882]]></description>
        <styleUrl>#icon-503-DB4436</styleUrl>
        <Point>
          <coordinates>
            121.2889545,25.0397171,0
          </coordinates>
        </Point>
      </Placemark>
      <Placemark>
        <name>50嵐(大園中華店)</name>
        <description><![CDATA[地址:337桃園市大園區中華路60號<br>電話:03-3850221]]></description>
        <styleUrl>#icon-503-DB4436</styleUrl>
        <Point>
          <coordinates>
            121.1991193,25.0670444,0
          </coordinates>
        </Point>
      </Placemark>
      <Placemark>
        <name>50嵐(龜山中興店)</name>
        <description><![CDATA[地址:333桃園市龜山區中興路393號<br>電話:03-3294333]]></description>
        <styleUrl>#icon-503-DB4436</styleUrl>
        <Point>
          <coordinates>
            121.3358429,24.9925455,0
          </coordinates>
        </Point>
      </Placemark>
      <Placemark>
        <name>50嵐(八德介壽店)</name>
        <description><![CDATA[地址:334桃園市八德區介壽路一段859號<br>電話:03-3628855]]></description>
        <styleUrl>#icon-503-DB4436</styleUrl>
        <Point>
          <coordinates>
            121.2999918,24.9611626,0
          </coordinates>
        </Point>
      </Placemark>
      <Placemark>
        <name>50嵐(八德興豐店)</name>
        <description>03-3651650 桃園市八德區興豐路700號</description>
        <styleUrl>#icon-503-DB4436</styleUrl>
        <Point>
          <coordinates>
            121.296635,24.9310159,0
          </coordinates>
        </Point>
      </Placemark>
      <Placemark>
        <name>50嵐(桃園長庚店)</name>
        <description><![CDATA[地址:333桃園市龜山區復興一路282號<br>電話:03-2115522、03-3187059]]></description>
        <styleUrl>#icon-503-DB4436</styleUrl>
        <Point>
          <coordinates>
            121.36227,25.0559729,0
          </coordinates>
        </Point>
      </Placemark>
      <Placemark>
        <name>50嵐(長庚Ⅱ店)</name>
        <description><![CDATA[地址:333桃園市龜山區復興北路21號<br>電話:03-3183010 、03-3183020]]></description>
        <styleUrl>#icon-503-DB4436</styleUrl>
        <Point>
          <coordinates>
            121.3692022,25.0594305,0
          </coordinates>
        </Point>
      </Placemark>
      <Placemark>
        <name>50嵐(龍潭北龍店)</name>
        <description><![CDATA[地址:325桃園市龍潭區北龍路61號<br>電話:03-4700456]]></description>
        <styleUrl>#icon-503-DB4436</styleUrl>
        <Point>
          <coordinates>
            121.2126155,24.8658041,0
          </coordinates>
        </Point>
      </Placemark>
      <Placemark>
        <name>50嵐(龍潭中興店)</name>
        <description><![CDATA[桃園市龍潭區中興里006鄰中興路302號<br>03-4090979]]></description>
        <styleUrl>#icon-503-DB4436</styleUrl>
        <Point>
          <coordinates>
            121.23329,24.8740039,0
          </coordinates>
        </Point>
      </Placemark>
      <Placemark>
        <name>50嵐(桃園大竹店)</name>
        <description><![CDATA[338桃園市蘆竹區上竹里大竹路522號<br>03-3239077]]></description>
        <styleUrl>#icon-503-DB4436</styleUrl>
        <Point>
          <coordinates>
            121.2597678,25.0238619,0
          </coordinates>
        </Point>
      </Placemark>
      <Placemark>
        <name>50嵐(觀音大觀店)</name>
        <description><![CDATA[328桃園市觀音區大觀路二段188號<br>(03)4837793]]></description>
        <styleUrl>#icon-503-DB4436</styleUrl>
        <Point>
          <coordinates>
            121.1388864,25.0442592,0
          </coordinates>
        </Point>
      </Placemark>
      <Placemark>
        <name>50嵐(平鎮中豐店)</name>
        <description><![CDATA[桃園市平鎮區中豐路南勢二段95號<br>03-4395111]]></description>
        <styleUrl>#icon-503-DB4436</styleUrl>
        <Point>
          <coordinates>
            121.2111194,24.9173213,0
          </coordinates>
        </Point>
      </Placemark>
      <Placemark>
        <name>50嵐(平鎮和平店)</name>
        <description><![CDATA[桃園市平鎮區和平路177號<br>03-4586677]]></description>
        <styleUrl>#icon-503-DB4436</styleUrl>
        <Point>
          <coordinates>
            121.2199339,24.9463874,0
          </coordinates>
        </Point>
      </Placemark>
      <Placemark>
        <name>50嵐(桃園南平店)</name>
        <description><![CDATA[330桃園市桃園區南平路280號<br>03-3570997]]></description>
        <styleUrl>#icon-503-DB4436</styleUrl>
        <Point>
          <coordinates>
            121.2996612,25.0188417,0
          </coordinates>
        </Point>
      </Placemark>
      <Placemark>
        <name>50嵐(桃園大有店)</name>
        <description><![CDATA[330桃園市桃園區大有路451號1樓<br>03-5382977]]></description>
        <styleUrl>#icon-503-DB4436</styleUrl>
        <Point>
          <coordinates>
            121.3187994,25.0118391,0
          </coordinates>
        </Point>
      </Placemark>
      <Placemark>
        <name>50嵐(桃園龍安店）</name>
        <description><![CDATA[330桃園市桃園區龍安街148-3號<br>03-3608696]]></description>
        <styleUrl>#icon-503-DB4436</styleUrl>
        <Point>
          <coordinates>
            121.2797653,24.9914498,0
          </coordinates>
        </Point>
      </Placemark>
      <Placemark>
        <name>50嵐(平鎮南豐店)</name>
        <description><![CDATA[桃園市平鎮區湧豐里南豐路18號1樓<br>03-4191698]]></description>
        <styleUrl>#icon-503-DB4436</styleUrl>
        <Point>
          <coordinates>
            121.2104489,24.9002972,0
          </coordinates>
        </Point>
      </Placemark>
    </Folder>
    <Folder>
      <name>50嵐-新竹縣市</name>
      <Placemark>
        <name>50嵐(新竹食品店)</name>
        <description><![CDATA[地址:300新竹市東區食品路184號<br>電話:03-5628050]]></description>
        <styleUrl>#icon-503-DB4436</styleUrl>
        <Point>
          <coordinates>
            120.975989,24.7972811,0
          </coordinates>
        </Point>
      </Placemark>
      <Placemark>
        <name>50嵐(新竹馬偕店)</name>
        <description><![CDATA[地址:300新竹市東區水源街61號1F<br>電話:03-5165006]]></description>
        <styleUrl>#icon-503-DB4436</styleUrl>
        <Point>
          <coordinates>
            120.9914969,24.8008312,0
          </coordinates>
        </Point>
      </Placemark>
      <Placemark>
        <name>50嵐(新竹民生店)</name>
        <description><![CDATA[地址:300新竹市東區民生路105號<br>電話:03-5456565]]></description>
        <styleUrl>#icon-503-DB4436</styleUrl>
        <Point>
          <coordinates>
            120.9773797,24.8095433,0
          </coordinates>
        </Point>
      </Placemark>
      <Placemark>
        <name>50嵐(新竹東門店)</name>
        <description><![CDATA[地址:300新竹市東門街113號<br>電話:03-5252678]]></description>
        <styleUrl>#icon-503-DB4436</styleUrl>
        <Point>
          <coordinates>
            120.9687001,24.8039264,0
          </coordinates>
        </Point>
      </Placemark>
      <Placemark>
        <name>50嵐(新竹南大店)</name>
        <description><![CDATA[地址:300新竹市東區南大路396號<br>電話:03-5616350]]></description>
        <styleUrl>#icon-503-DB4436</styleUrl>
        <Point>
          <coordinates>
            120.9696027,24.7977937,0
          </coordinates>
        </Point>
      </Placemark>
      <Placemark>
        <name>50嵐(新竹北大店)</name>
        <description><![CDATA[03-5277050 新竹市北區北大路301號<br>2019.9.12開幕]]></description>
        <styleUrl>#icon-503-DB4436</styleUrl>
        <Point>
          <coordinates>
            120.963035,24.806462,0
          </coordinates>
        </Point>
      </Placemark>
      <Placemark>
        <name>50嵐(新竹育賢店)</name>
        <description><![CDATA[03-5613728 <br>300新竹市南大路832號]]></description>
        <styleUrl>#icon-503-DB4436</styleUrl>
        <Point>
          <coordinates>
            120.9667557,24.7883804,0
          </coordinates>
        </Point>
      </Placemark>
      <Placemark>
        <name>50嵐(新竹清大店)</name>
        <description><![CDATA[地址:300新竹市建功一路45-5號<br>電話:03-5751166 、03-5727070]]></description>
        <styleUrl>#icon-503-DB4436</styleUrl>
        <Point>
          <coordinates>
            120.9977303,24.7980884,0
          </coordinates>
        </Point>
      </Placemark>
      <Placemark>
        <name>50嵐(新竹新埔店)</name>
        <description><![CDATA[地址::305新竹縣新埔鎮四座里中正路300號<br>電話03-5895050]]></description>
        <styleUrl>#icon-503-DB4436</styleUrl>
        <Point>
          <coordinates>
            121.0799199,24.827803,0
          </coordinates>
        </Point>
      </Placemark>
      <Placemark>
        <name>50嵐(新竹寶山店)</name>
        <description><![CDATA[地址:300新竹市東區寶山路408之1號<br>電話:03-6661357]]></description>
        <styleUrl>#icon-503-DB4436</styleUrl>
        <Point>
          <coordinates>
            120.988354,24.7858555,0
          </coordinates>
        </Point>
      </Placemark>
      <Placemark>
        <name>50嵐(新竹金山店)</name>
        <description><![CDATA[地址:300新竹市東區金山七街31號<br>電話:03-5645599]]></description>
        <styleUrl>#icon-503-DB4436</styleUrl>
        <Point>
          <coordinates>
            121.0203581,24.7783246,0
          </coordinates>
        </Point>
      </Placemark>
      <Placemark>
        <name>50嵐(新竹光復店)</name>
        <description>03-5798567 300新竹市東區光復路一段183號</description>
        <styleUrl>#icon-503-DB4436</styleUrl>
        <Point>
          <coordinates>
            121.0219667,24.7815965,0
          </coordinates>
        </Point>
      </Placemark>
      <Placemark>
        <name>50嵐(竹科新店)</name>
        <description><![CDATA[新竹市光復路一段434號<br>電話：03-5771369]]></description>
        <styleUrl>#icon-503-DB4436</styleUrl>
        <Point>
          <coordinates>
            121.0140569,24.7847446,0
          </coordinates>
        </Point>
      </Placemark>
      <Placemark>
        <name>50嵐(新竹林森店)</name>
        <description><![CDATA[地址:300新竹市東區林森路140號<br>電話:03-5220200]]></description>
        <styleUrl>#icon-503-DB4436</styleUrl>
        <Point>
          <coordinates>
            120.9654547,24.799889,0
          </coordinates>
        </Point>
      </Placemark>
      <Placemark>
        <name>50嵐(新竹中正店)</name>
        <description><![CDATA[新竹市北區水田里中正路278號<br>03-5333288]]></description>
        <styleUrl>#icon-503-DB4436</styleUrl>
        <Point>
          <coordinates>
            120.96426,24.8125421,0
          </coordinates>
        </Point>
      </Placemark>
      <Placemark>
        <name>50嵐(新竹大庄店 )</name>
        <description><![CDATA[地址:300新竹市香山區大庄路88號<br>電話:03-5401232]]></description>
        <styleUrl>#icon-503-DB4436</styleUrl>
        <Point>
          <coordinates>
            120.926672,24.7908413,0
          </coordinates>
        </Point>
      </Placemark>
      <Placemark>
        <name>50嵐(新竹中山店)</name>
        <description>03-5250057 新竹市北區中山路364號</description>
        <styleUrl>#icon-503-DB4436</styleUrl>
        <Point>
          <coordinates>
            120.959105,24.800988,0
          </coordinates>
        </Point>
      </Placemark>
      <Placemark>
        <name>50嵐(新竹光華店)</name>
        <description>03-5310806 新竹市北區光華東街15號</description>
        <styleUrl>#icon-503-DB4436</styleUrl>
        <Point>
          <coordinates>
            120.9740841,24.815433,0
          </coordinates>
        </Point>
      </Placemark>
      <Placemark>
        <name>50嵐(湖口新工店)</name>
        <description><![CDATA[地址:303新竹縣湖口鄉仁和路129號<br>電話:03-5978010]]></description>
        <styleUrl>#icon-503-DB4436</styleUrl>
        <Point>
          <coordinates>
            121.0146729,24.8730799,0
          </coordinates>
        </Point>
      </Placemark>
      <Placemark>
        <name>50嵐(湖口中正店)</name>
        <description><![CDATA[03-5905458 <br>303新竹縣湖口鄉中正路一段20號]]></description>
        <styleUrl>#icon-503-DB4436</styleUrl>
        <Point>
          <coordinates>
            121.0461714,24.901929,0
          </coordinates>
        </Point>
      </Placemark>
      <Placemark>
        <name>50嵐(湖口工業店)</name>
        <description><![CDATA[新竹縣湖口鄉勝利村10鄰工業一路8號1樓<br>03-5970109]]></description>
        <styleUrl>#icon-503-DB4436</styleUrl>
        <Point>
          <coordinates>
            121.0113259,24.8680562,0
          </coordinates>
        </Point>
      </Placemark>
      <Placemark>
        <name>50嵐(新豐明新店)</name>
        <description><![CDATA[地址:304新竹縣新豐鄉新興路67號<br>電話:03-5577928]]></description>
        <styleUrl>#icon-503-DB4436</styleUrl>
        <Point>
          <coordinates>
            120.9924645,24.8662123,0
          </coordinates>
        </Point>
      </Placemark>
      <Placemark>
        <name>50嵐(竹東長春店)</name>
        <description><![CDATA[地址:310新竹縣竹東鎮長春路三段226號<br>電話:03-5941357]]></description>
        <styleUrl>#icon-503-DB4436</styleUrl>
        <Point>
          <coordinates>
            121.0827859,24.7446968,0
          </coordinates>
        </Point>
      </Placemark>
      <Placemark>
        <name>50嵐(竹東二店）</name>
        <description><![CDATA[新竹縣竹東鎮長春路二段40號<br>03-5950297]]></description>
        <styleUrl>#icon-503-DB4436</styleUrl>
        <Point>
          <coordinates>
            121.0885607,24.7379217,0
          </coordinates>
        </Point>
      </Placemark>
      <Placemark>
        <name>50嵐(竹北正東店)</name>
        <description><![CDATA[地址:302新竹縣竹北市中正東路262號<br>電話:03-6565252]]></description>
        <styleUrl>#icon-503-DB4436</styleUrl>
        <Point>
          <coordinates>
            121.0128749,24.8353134,0
          </coordinates>
        </Point>
      </Placemark>
      <Placemark>
        <name>50嵐(竹北正西店)</name>
        <description><![CDATA[地址:302新竹縣竹北市中正西路124號<br>電話:03-5536707]]></description>
        <styleUrl>#icon-503-DB4436</styleUrl>
        <Point>
          <coordinates>
            121.0017604,24.8404189,0
          </coordinates>
        </Point>
      </Placemark>
      <Placemark>
        <name>50嵐(竹北十興店)</name>
        <description><![CDATA[新竹縣竹北市十興里莊敬五街138號<br>03-6675373]]></description>
        <styleUrl>#icon-503-DB4436</styleUrl>
        <Point>
          <coordinates>
            121.0275111,24.8249191,0
          </coordinates>
        </Point>
      </Placemark>
      <Placemark>
        <name>50嵐(竹北博愛店)</name>
        <description><![CDATA[新竹縣竹北市博愛街224號   <br>03-5556236]]></description>
        <styleUrl>#icon-503-DB4436</styleUrl>
        <Point>
          <coordinates>
            121.0072622,24.8339122,0
          </coordinates>
        </Point>
      </Placemark>
      <Placemark>
        <name>50嵐(嘉豐南店)</name>
        <description><![CDATA[新竹縣竹北市嘉豐南路二段30號<br>03-5509039]]></description>
        <styleUrl>#icon-503-DB4436</styleUrl>
        <Point>
          <coordinates>
            121.0320434,24.8078126,0
          </coordinates>
        </Point>
      </Placemark>
      <Placemark>
        <name>50嵐(新竹延平店)</name>
        <description><![CDATA[新竹市北區延平路一段288號<br>03-5222308]]></description>
        <styleUrl>#icon-503-DB4436</styleUrl>
        <Point>
          <coordinates>
            120.9522012,24.8051887,0
          </coordinates>
        </Point>
      </Placemark>
      <Placemark>
        <name>50嵐(新豐站前店）</name>
        <description><![CDATA[304新竹縣新豐鄉建興路一段25號1樓<br>03-5572797]]></description>
        <styleUrl>#icon-503-DB4436</styleUrl>
        <Point>
          <coordinates>
            120.9958136,24.8705469,0
          </coordinates>
        </Point>
      </Placemark>
      <Placemark>
        <name>50嵐(竹北福興東店)</name>
        <description><![CDATA[新竹縣竹北市福興東路一段345號<br>03-6688837]]></description>
        <styleUrl>#icon-503-DB4436</styleUrl>
        <Point>
          <coordinates>
            121.0269919,24.8156294,0
          </coordinates>
        </Point>
      </Placemark>
    </Folder>
    <Folder>
      <name>50嵐-苗栗縣市</name>
      <Placemark>
        <name>50嵐(苗栗為公店)</name>
        <description><![CDATA[地址:360苗栗市為公路156號<br>電話:037-275588]]></description>
        <styleUrl>#icon-503-DB4436-labelson</styleUrl>
        <Point>
          <coordinates>
            120.8266993,24.5704411,0
          </coordinates>
        </Point>
      </Placemark>
      <Placemark>
        <name>50嵐(頭份仁愛店)</name>
        <description><![CDATA[地址:351苗栗縣頭份鎮自強里仁愛路103號<br>電話:037-696000]]></description>
        <styleUrl>#icon-503-DB4436-labelson</styleUrl>
        <Point>
          <coordinates>
            120.908337,24.6869658,0
          </coordinates>
        </Point>
      </Placemark>
      <Placemark>
        <name>50嵐(頭份建國店)</name>
        <description><![CDATA[地址:351苗栗縣頭份市建國路77號<br>電話:037-695693]]></description>
        <styleUrl>#icon-503-DB4436-labelson</styleUrl>
        <Point>
          <coordinates>
            120.9137953,24.6933276,0
          </coordinates>
        </Point>
      </Placemark>
      <Placemark>
        <name>50嵐(頭份尚順店)</name>
        <description><![CDATA[店址：苗栗縣頭份市東庄里18鄰東民五街8號<br>電話：037-690889]]></description>
        <styleUrl>#icon-503-DB4436-labelson</styleUrl>
        <Point>
          <coordinates>
            120.9030198,24.68908,0
          </coordinates>
        </Point>
      </Placemark>
      <Placemark>
        <name>50嵐(苗栗公館店)</name>
        <description><![CDATA[地址:363苗栗縣公館鄉館中村大同路231-5號<br>電話:037-233165]]></description>
        <styleUrl>#icon-503-DB4436-labelson</styleUrl>
        <Point>
          <coordinates>
            120.8271412,24.5056209,0
          </coordinates>
        </Point>
      </Placemark>
      <Placemark>
        <name>50嵐(苗栗中正店)</name>
        <description><![CDATA[地址:360苗栗市中正路1077號<br>電話:037-376588]]></description>
        <styleUrl>#icon-503-DB4436-labelson</styleUrl>
        <Point>
          <coordinates>
            120.8163795,24.5477087,0
          </coordinates>
        </Point>
      </Placemark>
      <Placemark>
        <name>50嵐(苗栗苑裡店)</name>
        <description><![CDATA[地址:358苗栗縣苑裡鎮天下路51號<br>電話:037-855866]]></description>
        <styleUrl>#icon-503-DB4436-labelson</styleUrl>
        <Point>
          <coordinates>
            120.6521399,24.44251,0
          </coordinates>
        </Point>
      </Placemark>
      <Placemark>
        <name>50嵐(苗栗府前店 )</name>
        <description><![CDATA[地址:360苗栗市府前路86-2號 <br>電話:037-365588]]></description>
        <styleUrl>#icon-503-DB4436-labelson</styleUrl>
        <Point>
          <coordinates>
            120.8188713,24.5611951,0
          </coordinates>
        </Point>
      </Placemark>
      <Placemark>
        <name>50嵐(竹南中正店)
</name>
        <description><![CDATA[苗栗縣竹南鎮中正路263-1號 <br>電話：037-552577]]></description>
        <styleUrl>#icon-503-DB4436-labelson</styleUrl>
        <Point>
          <coordinates>
            120.8727494,24.6835773,0
          </coordinates>
        </Point>
      </Placemark>
      <Placemark>
        <name>50嵐(竹南光復店)</name>
        <description><![CDATA[地址:350苗栗縣竹南鎮光復路133號<br>電話:037-551253]]></description>
        <styleUrl>#icon-503-DB4436-labelson</styleUrl>
        <Point>
          <coordinates>
            120.8790359,24.6865058,0
          </coordinates>
        </Point>
      </Placemark>
    </Folder>
    <Folder>
      <name>50嵐-台中市</name>
      <Placemark>
        <name>50嵐(健行店)</name>
        <description><![CDATA[404台中市北區健行路516號 <br>(04)2208-3365]]></description>
        <styleUrl>#icon-503-DB4436</styleUrl>
        <Point>
          <coordinates>
            120.679235,24.159353,0
          </coordinates>
        </Point>
      </Placemark>
      <Placemark>
        <name>50嵐(民生店)</name>
        <description><![CDATA[403台中市西區民生路163號<br>(04)2229-8088]]></description>
        <styleUrl>#icon-503-DB4436</styleUrl>
        <Point>
          <coordinates>
            120.670803,24.142583,0
          </coordinates>
        </Point>
      </Placemark>
      <Placemark>
        <name>50嵐(美村店)</name>
        <description><![CDATA[地址：403台中市西區美村路一段141號<br>電話：04-2320-6326]]></description>
        <styleUrl>#icon-503-DB4436</styleUrl>
        <Point>
          <coordinates>
            120.6619425,24.151747,0
          </coordinates>
        </Point>
      </Placemark>
      <Placemark>
        <name>50嵐(昌平店)</name>
        <description><![CDATA[406台中市北屯區昌平路一段210號<br> (04)2238-9699]]></description>
        <styleUrl>#icon-503-DB4436</styleUrl>
        <Point>
          <coordinates>
            120.691638,24.169974,0
          </coordinates>
        </Point>
      </Placemark>
      <Placemark>
        <name>50嵐(昌平二店)</name>
        <description><![CDATA[台中市北屯區昌平路二段1-3號<br>04-22475239]]></description>
        <styleUrl>#icon-503-DB4436</styleUrl>
        <Point>
          <coordinates>
            120.690193,24.177026,0
          </coordinates>
        </Point>
      </Placemark>
      <Placemark>
        <name>50嵐(河南店)</name>
        <description><![CDATA[地址:台中市西屯區河南路二段396號1F<br>電話:04-24529800]]></description>
        <styleUrl>#icon-503-DB4436</styleUrl>
        <Point>
          <coordinates>
            120.6462429,24.1731511,0
          </coordinates>
        </Point>
      </Placemark>
      <Placemark>
        <name>50嵐(向上二店)</name>
        <description><![CDATA[408台中市南屯區向上路二段472號<br> (04)2380-3575 原黎明一更名]]></description>
        <styleUrl>#icon-503-DB4436</styleUrl>
        <Point>
          <coordinates>
            120.636706,24.147086,0
          </coordinates>
        </Point>
      </Placemark>
      <Placemark>
        <name>50嵐(忠孝店)</name>
        <description><![CDATA[402台中市南區忠孝路160號<br> (04)2285-5810]]></description>
        <styleUrl>#icon-503-DB4436</styleUrl>
        <Point>
          <coordinates>
            120.682433,24.129679,0
          </coordinates>
        </Point>
      </Placemark>
      <Placemark>
        <name>50嵐(向上店)</name>
        <description><![CDATA[台中市西區向上路1段388-1號<br> (04)2310-1313]]></description>
        <styleUrl>#icon-503-DB4436</styleUrl>
        <Point>
          <coordinates>
            120.655847,24.146989,0
          </coordinates>
        </Point>
      </Placemark>
      <Placemark>
        <name>50嵐(東興二店)</name>
        <description><![CDATA[408台中市南屯區東興路2段5號<br> (04)2473-3918]]></description>
        <styleUrl>#icon-503-DB4436</styleUrl>
        <Point>
          <coordinates>
            120.652778,24.136258,0
          </coordinates>
        </Point>
      </Placemark>
      <Placemark>
        <name>50嵐(公園店)</name>
        <description><![CDATA[400台中市中區公園路28號<br> (40)2223-7886]]></description>
        <styleUrl>#icon-503-DB4436</styleUrl>
        <Point>
          <coordinates>
            120.681467,24.145246,0
          </coordinates>
        </Point>
      </Placemark>
      <Placemark>
        <name>50嵐(一中店)</name>
        <description><![CDATA[404台中市北區一中街87-1號<br>04-22256688]]></description>
        <styleUrl>#icon-503-DB4436</styleUrl>
        <Point>
          <coordinates>
            120.6848307,24.1496814,0
          </coordinates>
        </Point>
      </Placemark>
      <Placemark>
        <name>50嵐(一中二店)</name>
        <description><![CDATA[台中市北區新興里太平路85號<br>04-22261616]]></description>
        <styleUrl>#icon-503-DB4436</styleUrl>
        <Point>
          <coordinates>
            120.683769,24.1479249,0
          </coordinates>
        </Point>
      </Placemark>
      <Placemark>
        <name>50嵐(學士店)</name>
        <description><![CDATA[404台中市北區學士路45號<br> (04)2206-8891]]></description>
        <styleUrl>#icon-503-DB4436</styleUrl>
        <Point>
          <coordinates>
            120.682089,24.154116,0
          </coordinates>
        </Point>
      </Placemark>
      <Placemark>
        <name>50嵐(青海店)</name>
        <description><![CDATA[407台中市西屯區青海路一段152號 <br>(04)2315-5088]]></description>
        <styleUrl>#icon-503-DB4436</styleUrl>
        <Point>
          <coordinates>
            120.653465,24.165412,0
          </coordinates>
        </Point>
      </Placemark>
      <Placemark>
        <name>50嵐(重慶寧夏店)</name>
        <description><![CDATA[407台中市西屯區重慶路191號<br> (04)2315-5086]]></description>
        <styleUrl>#icon-503-DB4436</styleUrl>
        <Point>
          <coordinates>
            120.659451,24.169792,0
          </coordinates>
        </Point>
      </Placemark>
      <Placemark>
        <name>50嵐(中科店)</name>
        <description><![CDATA[台中市西屯區西屯路三段164-23號<br>04-24618766]]></description>
        <styleUrl>#icon-503-DB4436</styleUrl>
        <Point>
          <coordinates>
            120.617131,24.1888019,0
          </coordinates>
        </Point>
      </Placemark>
      <Placemark>
        <name>50嵐(中科福雅店)</name>
        <description><![CDATA[台中市西屯區福雅路571之7號<br>04-24621515]]></description>
        <styleUrl>#icon-503-DB4436</styleUrl>
        <Point>
          <coordinates>
            120.6273175,24.2012505,0
          </coordinates>
        </Point>
      </Placemark>
      <Placemark>
        <name>50嵐(西屯店)</name>
        <description><![CDATA[台中市西屯區西屯路二段17-2號1樓<br> (04)2329-6608]]></description>
        <styleUrl>#icon-503-DB4436</styleUrl>
        <Point>
          <coordinates>
            120.665481,24.15995,0
          </coordinates>
        </Point>
      </Placemark>
      <Placemark>
        <name>50嵐(黎明二店)</name>
        <description><![CDATA[407台中市西屯區黎明路三段329號<br> (04)2452-6538]]></description>
        <styleUrl>#icon-503-DB4436</styleUrl>
        <Point>
          <coordinates>
            120.6372213,24.1795269,0
          </coordinates>
        </Point>
      </Placemark>
      <Placemark>
        <name>50嵐(逢甲店)</name>
        <description><![CDATA[台中市西屯區逢甲路20巷6號<br>04-24522475]]></description>
        <styleUrl>#icon-503-DB4436</styleUrl>
        <Point>
          <coordinates>
            120.6458065,24.1793215,0
          </coordinates>
        </Point>
      </Placemark>
      <Placemark>
        <name>50嵐(七期朝富路)</name>
        <description><![CDATA[台中市西屯區朝富路142號<br>04-22521177]]></description>
        <styleUrl>#icon-503-DB4436</styleUrl>
        <Point>
          <coordinates>
            120.6363766,24.1650854,0
          </coordinates>
        </Point>
      </Placemark>
      <Placemark>
        <name>50嵐(中科玉門店)</name>
        <description><![CDATA[台中市西屯區福科里玉門路104號<br>04-24630138]]></description>
        <styleUrl>#icon-503-DB4436</styleUrl>
        <Point>
          <coordinates>
            120.6102187,24.1869217,0
          </coordinates>
        </Point>
      </Placemark>
      <Placemark>
        <name>50嵐(世貿店)</name>
        <description><![CDATA[台中市西屯區中工三路36號1F<br>04-23553700]]></description>
        <styleUrl>#icon-503-DB4436</styleUrl>
        <Point>
          <coordinates>
            120.6191829,24.1801385,0
          </coordinates>
        </Point>
      </Placemark>
      <Placemark>
        <name>50嵐(永安店)</name>
        <description>04-24620865 台中市西屯區西屯路三段148-40號</description>
        <styleUrl>#icon-503-DB4436</styleUrl>
        <Point>
          <coordinates>
            120.623524,24.185977,0
          </coordinates>
        </Point>
      </Placemark>
      <Placemark>
        <name>50嵐(樂業店)
</name>
        <description>04-22155050 台中市東區樂業路192號</description>
        <styleUrl>#icon-503-DB4436</styleUrl>
        <Point>
          <coordinates>
            120.69756,24.138663,0
          </coordinates>
        </Point>
      </Placemark>
      <Placemark>
        <name>50嵐(大里大明店)</name>
        <description>412台中縣大里市大明路328號 (04)2482-1333</description>
        <styleUrl>#icon-503-DB4436</styleUrl>
        <Point>
          <coordinates>
            120.681252,24.115147,0
          </coordinates>
        </Point>
      </Placemark>
      <Placemark>
        <name>50嵐(大里益民店)</name>
        <description><![CDATA[04-24822280<br>台中市大里區益民路二段257號]]></description>
        <styleUrl>#icon-503-DB4436</styleUrl>
        <Point>
          <coordinates>
            120.6837407,24.1106264,0
          </coordinates>
        </Point>
      </Placemark>
      <Placemark>
        <name>50嵐(大里成功店)</name>
        <description><![CDATA[412台中市大里區成功二路36號<br> (04)2496-3457]]></description>
        <styleUrl>#icon-503-DB4436</styleUrl>
        <Point>
          <coordinates>
            120.7038049,24.0928083,0
          </coordinates>
        </Point>
      </Placemark>
      <Placemark>
        <name>50嵐(大里中興店)</name>
        <description><![CDATA[412台中市大里區中興路二段386-13號 <br>(04)2483-4783]]></description>
        <styleUrl>#icon-503-DB4436</styleUrl>
        <Point>
          <coordinates>
            120.689621,24.106275,0
          </coordinates>
        </Point>
      </Placemark>
      <Placemark>
        <name>50嵐(大里中興二店)</name>
        <description><![CDATA[住址：412台中市大里區中興路一段197號<br>電話：04-24953980]]></description>
        <styleUrl>#icon-503-DB4436</styleUrl>
        <Point>
          <coordinates>
            120.6930925,24.0902003,0
          </coordinates>
        </Point>
      </Placemark>
      <Placemark>
        <name>50嵐(黎明一店)</name>
        <description><![CDATA[408台中市南屯區黎明路二段366-1號<br> (04)2253-3226 ]]></description>
        <styleUrl>#icon-503-DB4436</styleUrl>
        <Point>
          <coordinates>
            120.635591,24.150572,0
          </coordinates>
        </Point>
      </Placemark>
      <Placemark>
        <name>50嵐(大墩一店)</name>
        <description><![CDATA[408台中市南屯區大墩路271號<br> (04)2473-6708]]></description>
        <styleUrl>#icon-503-DB4436</styleUrl>
        <Point>
          <coordinates>
            120.649667,24.143229,0
          </coordinates>
        </Point>
      </Placemark>
      <Placemark>
        <name>50嵐(大雅民生店)</name>
        <description><![CDATA[428台中縣大雅鄉民生路一段181號<br> (04)2568-2533]]></description>
        <styleUrl>#icon-503-DB4436</styleUrl>
        <Point>
          <coordinates>
            120.650375,24.2273,0
          </coordinates>
        </Point>
      </Placemark>
      <Placemark>
        <name>50嵐(大雅學府)</name>
        <description><![CDATA[台中市大雅區學府路295號<br>04-25650633]]></description>
        <styleUrl>#icon-503-DB4436</styleUrl>
        <Point>
          <coordinates>
            120.6492053,24.2247594,0
          </coordinates>
        </Point>
      </Placemark>
      <Placemark>
        <name>50嵐(向心南店)</name>
        <description><![CDATA[408台中市南屯區向心南路972號<br> (04)2472-6575]]></description>
        <styleUrl>#icon-503-DB4436</styleUrl>
        <Point>
          <coordinates>
            120.644023,24.137374,0
          </coordinates>
        </Point>
      </Placemark>
      <Placemark>
        <name>50嵐(太平太平店)</name>
        <description>411台中縣太平市中興路95號 (04)2276-5466</description>
        <styleUrl>#icon-503-DB4436</styleUrl>
        <Point>
          <coordinates>
            120.716121,24.1274066,0
          </coordinates>
        </Point>
      </Placemark>
      <Placemark>
        <name>50嵐(太平中山店)</name>
        <description><![CDATA[411台中縣太平市中山路四段206號<br> (04)2395-3980]]></description>
        <styleUrl>#icon-503-DB4436</styleUrl>
        <Point>
          <coordinates>
            120.702281,24.148242,0
          </coordinates>
        </Point>
      </Placemark>
      <Placemark>
        <name>50嵐(太平長億店)</name>
        <description><![CDATA[台中市太平區太平路155號<br>04-22757277]]></description>
        <styleUrl>#icon-503-DB4436</styleUrl>
        <Point>
          <coordinates>
            120.7208872,24.1204725,0
          </coordinates>
        </Point>
      </Placemark>
      <Placemark>
        <name>50嵐(太平十甲店)</name>
        <description><![CDATA[406台中市太平區十甲路623號<br>04-22761717]]></description>
        <styleUrl>#icon-503-DB4436</styleUrl>
        <Point>
          <coordinates>
            120.713438,24.1444233,0
          </coordinates>
        </Point>
      </Placemark>
      <Placemark>
        <name>50嵐(太平樹德店)</name>
        <description><![CDATA[台中市太平區樹德路310號<br>04-23950013]]></description>
        <styleUrl>#icon-503-DB4436</styleUrl>
        <Point>
          <coordinates>
            120.712797,24.1577436,0
          </coordinates>
        </Point>
      </Placemark>
      <Placemark>
        <name>50嵐(太平勤益店)</name>
        <description><![CDATA[04-23920053<br>台中市太平區中山路一段283號]]></description>
        <styleUrl>#icon-503-DB4436</styleUrl>
        <Point>
          <coordinates>
            120.733922,24.1441609,0
          </coordinates>
        </Point>
      </Placemark>
      <Placemark>
        <name>50嵐(中興嶺店)</name>
        <description><![CDATA[台中市新社中興嶺170號<br>04-25825382]]></description>
        <styleUrl>#icon-503-DB4436</styleUrl>
        <Point>
          <coordinates>
            120.7945115,24.2053246,0
          </coordinates>
        </Point>
      </Placemark>
      <Placemark>
        <name>50嵐(東山店 )</name>
        <description><![CDATA[406台中市北屯區東山路一段138之1號<br> (04)2436-9970]]></description>
        <styleUrl>#icon-503-DB4436</styleUrl>
        <Point>
          <coordinates>
            120.702882,24.169484,0
          </coordinates>
        </Point>
      </Placemark>
      <Placemark>
        <name>50嵐(軍功新店)</name>
        <description>04-24375774 台中市北屯區東山路一段262號</description>
        <styleUrl>#icon-503-DB4436</styleUrl>
        <Point>
          <coordinates>
            120.7187936,24.1756914,0
          </coordinates>
        </Point>
      </Placemark>
      <Placemark>
        <name>50嵐(樹孝店)</name>
        <description>(04)2395-5506 台中縣太平市樹孝路43-3號</description>
        <styleUrl>#icon-503-DB4436</styleUrl>
        <Point>
          <coordinates>
            120.716465,24.150905,0
          </coordinates>
        </Point>
      </Placemark>
      <Placemark>
        <name>50嵐(霧峰中正店)</name>
        <description><![CDATA[413台中市霧峰區中正路861號<br> (04)2333-7597]]></description>
        <styleUrl>#icon-503-DB4436</styleUrl>
        <Point>
          <coordinates>
            120.698569,24.063511,0
          </coordinates>
        </Point>
      </Placemark>
      <Placemark>
        <name>50嵐(霧工店)</name>
        <description><![CDATA[04-23398080<br>台中市霧峰區四德路332號]]></description>
        <styleUrl>#icon-503-DB4436</styleUrl>
        <Point>
          <coordinates>
            120.6807286,24.0652406,0
          </coordinates>
        </Point>
      </Placemark>
      <Placemark>
        <name>50嵐(潭子勝利店)</name>
        <description><![CDATA[427台中市潭子區勝利路340號 <br>(04)2534-3191]]></description>
        <styleUrl>#icon-503-DB4436</styleUrl>
        <Point>
          <coordinates>
            120.700736,24.214052,0
          </coordinates>
        </Point>
      </Placemark>
      <Placemark>
        <name>50嵐(松竹店)</name>
        <description><![CDATA[406台中市北屯區松竹路二段101號 <br>(04)2247-3400]]></description>
        <styleUrl>#icon-503-DB4436</styleUrl>
        <Point>
          <coordinates>
            120.697496,24.182893,0
          </coordinates>
        </Point>
      </Placemark>
      <Placemark>
        <name>50嵐(大墩二店)</name>
        <description><![CDATA[408台中市南屯區大墩路803號<br> (04)2320-7120]]></description>
        <styleUrl>#icon-503-DB4436</styleUrl>
        <Point>
          <coordinates>
            120.649495,24.155036,0
          </coordinates>
        </Point>
      </Placemark>
      <Placemark>
        <name>50嵐(漢口二店)</name>
        <description><![CDATA[地址:台中市北區漢口路三段223號<br>電話:04-22952282]]></description>
        <styleUrl>#icon-503-DB4436</styleUrl>
        <Point>
          <coordinates>
            120.6716656,24.1671349,0
          </coordinates>
        </Point>
      </Placemark>
      <Placemark>
        <name>50嵐(北平店)</name>
        <description>404台中市北區北平路二段168號 (04)2299-3093</description>
        <styleUrl>#icon-503-DB4436</styleUrl>
        <Point>
          <coordinates>
            120.677412,24.171285,0
          </coordinates>
        </Point>
      </Placemark>
      <Placemark>
        <name>50嵐(美村南店)</name>
        <description><![CDATA[402台中市南區美村南路235號<br> (04)2261-3558]]></description>
        <styleUrl>#icon-503-DB4436</styleUrl>
        <Point>
          <coordinates>
            120.666683,24.114991,0
          </coordinates>
        </Point>
      </Placemark>
      <Placemark>
        <name>50嵐(烏日中山店)</name>
        <description><![CDATA[414台中市烏日區中山路一段462號 <br>(04)2336-9583]]></description>
        <styleUrl>#icon-503-DB4436</styleUrl>
        <Point>
          <coordinates>
            120.636256,24.107254,0
          </coordinates>
        </Point>
      </Placemark>
      <Placemark>
        <name>50嵐(大慶店)</name>
        <description><![CDATA[402台中市南區大慶街2段6之5號<br> (04)2260-2913]]></description>
        <styleUrl>#icon-503-DB4436</styleUrl>
        <Point>
          <coordinates>
            120.652821,24.114442,0
          </coordinates>
        </Point>
      </Placemark>
      <Placemark>
        <name>50嵐(國美店)</name>
        <description>04-23786326 台中市西區美村路一段662-1號</description>
        <styleUrl>#icon-503-DB4436</styleUrl>
        <Point>
          <coordinates>
            120.661432,24.135786,0
          </coordinates>
        </Point>
      </Placemark>
      <Placemark>
        <name>50嵐(繼光店)</name>
        <description><![CDATA[403台中市西區民權路59號<br> (04)2229-3555]]></description>
        <styleUrl>#icon-503-DB4436</styleUrl>
        <Point>
          <coordinates>
            120.680866,24.136767,0
          </coordinates>
        </Point>
      </Placemark>
      <Placemark>
        <name>50嵐(后里甲后店)</name>
        <description><![CDATA[421台中市后里區甲后路387號<br> (04)2557-6606]]></description>
        <styleUrl>#icon-503-DB4436</styleUrl>
        <Point>
          <coordinates>
            120.723733,24.308686,0
          </coordinates>
        </Point>
      </Placemark>
      <Placemark>
        <name>50嵐(后里四村店)</name>
        <description><![CDATA[台中市后里區四村路106號<br>04-25567666]]></description>
        <styleUrl>#icon-503-DB4436</styleUrl>
        <Point>
          <coordinates>
            120.7132942,24.3054494,0
          </coordinates>
        </Point>
      </Placemark>
      <Placemark>
        <name>50嵐(麗寶店)</name>
        <description><![CDATA[台中市后里區福容路201號<br>04-37020818]]></description>
        <styleUrl>#icon-503-DB4436</styleUrl>
        <Point>
          <coordinates>
            120.6992488,24.3243894,0
          </coordinates>
        </Point>
      </Placemark>
      <Placemark>
        <name>50嵐(外埔店）</name>
        <description><![CDATA[台中市外埔區大同里甲后路三段928號1樓<br>04-26835028]]></description>
        <styleUrl>#icon-503-DB4436</styleUrl>
        <Point>
          <coordinates>
            120.6553991,24.330023,0
          </coordinates>
        </Point>
      </Placemark>
      <Placemark>
        <name>50嵐(外埔二店)</name>
        <description><![CDATA[店址：台中市外埔區甲后路五段106號<br>電話：04-26800850]]></description>
        <styleUrl>#icon-503-DB4436</styleUrl>
        <Point>
          <coordinates>
            120.6378531,24.3424993,0
          </coordinates>
        </Point>
      </Placemark>
      <Placemark>
        <name>50嵐(復興店)</name>
        <description><![CDATA[402台中市南區復興路二段2-1號<br> (04)2262-7758]]></description>
        <styleUrl>#icon-503-DB4436</styleUrl>
        <Point>
          <coordinates>
            120.657928,24.117498,0
          </coordinates>
        </Point>
      </Placemark>
      <Placemark>
        <name>50嵐(社口店)</name>
        <description><![CDATA[429台中市神岡區社口村中山路606號<br> (04)2561-2520]]></description>
        <styleUrl>#icon-503-DB4436</styleUrl>
        <Point>
          <coordinates>
            120.686059,24.246808,0
          </coordinates>
        </Point>
      </Placemark>
      <Placemark>
        <name>50嵐(永春店)</name>
        <description><![CDATA[408台中市南屯區黎明路一段1021號 <br>(04)2389-5938]]></description>
        <styleUrl>#icon-503-DB4436</styleUrl>
        <Point>
          <coordinates>
            120.6371834,24.1377762,0
          </coordinates>
        </Point>
      </Placemark>
      <Placemark>
        <name>50嵐(大甲順天店)</name>
        <description><![CDATA[437台中市大甲區順天路196號<br> (04)2686-3090]]></description>
        <styleUrl>#icon-503-DB4436</styleUrl>
        <Point>
          <coordinates>
            120.624068,24.346295,0
          </coordinates>
        </Point>
      </Placemark>
      <Placemark>
        <name>50嵐(大甲蔣公店)</name>
        <description><![CDATA[437台中縣大甲鎮蔣公路161號 <br>(04)2688-0150]]></description>
        <styleUrl>#icon-503-DB4436</styleUrl>
        <Point>
          <coordinates>
            120.621402,24.346373,0
          </coordinates>
        </Point>
      </Placemark>
      <Placemark>
        <name>50嵐(東海店)</name>
        <description><![CDATA[434台中市龍井區遊園南路218號<br> (04)2633-7720]]></description>
        <styleUrl>#icon-503-DB4436</styleUrl>
        <Point>
          <coordinates>
            120.583985,24.181817,0
          </coordinates>
        </Point>
      </Placemark>
      <Placemark>
        <name>50嵐(東海二店)</name>
        <description><![CDATA[台中市龍井區台灣大道五段3巷72號<br>04-26315030]]></description>
        <styleUrl>#icon-503-DB4436</styleUrl>
        <Point>
          <coordinates>
            120.5920677,24.1814442,0
          </coordinates>
        </Point>
      </Placemark>
      <Placemark>
        <name>50嵐(梧棲店)</name>
        <description><![CDATA[435台中縣梧棲鎮文化路二段117號<br> (04)2657-3046]]></description>
        <styleUrl>#icon-503-DB4436</styleUrl>
        <Point>
          <coordinates>
            120.530384,24.254966,0
          </coordinates>
        </Point>
      </Placemark>
      <Placemark>
        <name>50嵐(梧棲中央店)</name>
        <description><![CDATA[台中市梧棲區中央路一段666-16號<br>04-26576776]]></description>
        <styleUrl>#icon-503-DB4436</styleUrl>
        <Point>
          <coordinates>
            120.5401096,24.2449112,0
          </coordinates>
        </Point>
      </Placemark>
      <Placemark>
        <name>50嵐(清泉崗店)</name>
        <description><![CDATA[428台中市大雅區中清路四段883號<br> (04)25651488]]></description>
        <styleUrl>#icon-503-DB4436</styleUrl>
        <Point>
          <coordinates>
            120.63072,24.240528,0
          </coordinates>
        </Point>
      </Placemark>
      <Placemark>
        <name>50嵐(大肚店)</name>
        <description><![CDATA[432台中縣大肚鄉沙田路二段638號<br> (04)2699-2436]]></description>
        <styleUrl>#icon-503-DB4436</styleUrl>
        <Point>
          <coordinates>
            120.545334,24.151272,0
          </coordinates>
        </Point>
      </Placemark>
      <Placemark>
        <name>50嵐(雙十店)</name>
        <description><![CDATA[404台中市北區雙十路二段33號<br> (04)2223-5255]]></description>
        <styleUrl>#icon-503-DB4436</styleUrl>
        <Point>
          <coordinates>
            120.68872,24.152862,0
          </coordinates>
        </Point>
      </Placemark>
      <Placemark>
        <name>50嵐(頭張店)</name>
        <description><![CDATA[427台中縣潭子鄉頭張路一段123號 <br>(04)2531-0533]]></description>
        <styleUrl>#icon-503-DB4436</styleUrl>
        <Point>
          <coordinates>
            120.698977,24.194501,0
          </coordinates>
        </Point>
      </Placemark>
      <Placemark>
        <name>50嵐(豐原三民店)</name>
        <description><![CDATA[(04)2520-5502<br> 420台中縣豐原市三民路112號]]></description>
        <styleUrl>#icon-503-DB4436</styleUrl>
        <Point>
          <coordinates>
            120.719919,24.253636,0
          </coordinates>
        </Point>
      </Placemark>
      <Placemark>
        <name>50嵐(豐原中正店)</name>
        <description><![CDATA[420台中市豐原區中正路725號<br> (04)2525-5062]]></description>
        <styleUrl>#icon-503-DB4436</styleUrl>
        <Point>
          <coordinates>
            120.701208,24.248921,0
          </coordinates>
        </Point>
      </Placemark>
      <Placemark>
        <name>50嵐(豐原中山店)</name>
        <description><![CDATA[04-25260010<br>台中市豐原區中山路375號]]></description>
        <styleUrl>#icon-503-DB4436</styleUrl>
        <Point>
          <coordinates>
            120.714525,24.249716,0
          </coordinates>
        </Point>
      </Placemark>
      <Placemark>
        <name>50嵐(豐原成功店)</name>
        <description><![CDATA[台中市豐原區成功路206號<br>04-25277010]]></description>
        <styleUrl>#icon-503-DB4436</styleUrl>
        <Point>
          <coordinates>
            120.7086264,24.2459869,0
          </coordinates>
        </Point>
      </Placemark>
      <Placemark>
        <name>50嵐(東勢中山店)</name>
        <description><![CDATA[423台中縣東勢鎮中山路51號<br> (04)2587-5507]]></description>
        <styleUrl>#icon-503-DB4436</styleUrl>
        <Point>
          <coordinates>
            120.829868,24.257001,0
          </coordinates>
        </Point>
      </Placemark>
      <Placemark>
        <name>50嵐(豐勢店)</name>
        <description><![CDATA[(04)2587-2727<br> 台中縣東勢鎮豐勢路218號]]></description>
        <styleUrl>#icon-503-DB4436</styleUrl>
        <Point>
          <coordinates>
            120.830362,24.250975,0
          </coordinates>
        </Point>
      </Placemark>
      <Placemark>
        <name>50嵐(豐原南陽店)</name>
        <description><![CDATA[台中市豐原區南陽路324號<br>(04)2515-8833]]></description>
        <styleUrl>#icon-503-DB4436</styleUrl>
        <Point>
          <coordinates>
            120.7261643,24.2458961,0
          </coordinates>
        </Point>
      </Placemark>
      <Placemark>
        <name>50嵐(神岡豐洲店)</name>
        <description><![CDATA[台中縣神岡鄉五權路97號<br>(04)2527-8833]]></description>
        <styleUrl>#icon-503-DB4436</styleUrl>
        <Point>
          <coordinates>
            120.7120872,24.2571898,0
          </coordinates>
        </Point>
      </Placemark>
      <Placemark>
        <name>50嵐(興大學府店)</name>
        <description><![CDATA[地址：台中市南區學府路40號<br>電話：04-22855515]]></description>
        <styleUrl>#icon-503-DB4436</styleUrl>
        <Point>
          <coordinates>
            120.6754127,24.1253538,0
          </coordinates>
        </Point>
      </Placemark>
      <Placemark>
        <name>50嵐(崇德店)</name>
        <description>(04)2246-3233 台中市北屯區崇德路2段289號</description>
        <styleUrl>#icon-503-DB4436</styleUrl>
        <Point>
          <coordinates>
            120.685608,24.177138,0
          </coordinates>
        </Point>
      </Placemark>
      <Placemark>
        <name>50嵐(大智店)</name>
        <description><![CDATA[地址:台中市東區大智路9號<br>電話:04-22219899]]></description>
        <styleUrl>#icon-503-DB4436</styleUrl>
        <Point>
          <coordinates>
            120.6883469,24.1360863,0
          </coordinates>
        </Point>
      </Placemark>
      <Placemark>
        <name>50嵐(精誠店)</name>
        <description>04-23209550 台中市西區精誠路77號</description>
        <styleUrl>#icon-503-DB4436</styleUrl>
        <Point>
          <coordinates>
            120.655192,24.1519792,0
          </coordinates>
        </Point>
      </Placemark>
      <Placemark>
        <name>50嵐(公益店)</name>
        <description><![CDATA[台中市南屯區公益路二段158號 <br>Tel：04-23272655]]></description>
        <styleUrl>#icon-503-DB4436</styleUrl>
        <Point>
          <coordinates>
            120.6479247,24.151063,0
          </coordinates>
        </Point>
      </Placemark>
      <Placemark>
        <name>50嵐(英才店)</name>
        <description><![CDATA[404 台中市北區英才路304號 <br>(04)22038190]]></description>
        <styleUrl>#icon-503-DB4436</styleUrl>
        <Point>
          <coordinates>
            120.6708428,24.1559076,0
          </coordinates>
        </Point>
      </Placemark>
      <Placemark>
        <name>50嵐(嶺東店)</name>
        <description><![CDATA[408台中市南屯區忠勇路43-4號<br> (04)2380-8356]]></description>
        <styleUrl>#icon-503-DB4436</styleUrl>
        <Point>
          <coordinates>
            120.612695,24.1393766,0
          </coordinates>
        </Point>
      </Placemark>
      <Placemark>
        <name>50嵐(忠勇店)</name>
        <description><![CDATA[住址：台中市南屯區忠勇路80-26-1號<br>電話：04-23808707]]></description>
        <styleUrl>#icon-503-DB4436</styleUrl>
        <Point>
          <coordinates>
            120.6165844,24.1530081,0
          </coordinates>
        </Point>
      </Placemark>
      <Placemark>
        <name>50嵐(沙鹿中山新店)</name>
        <description><![CDATA[433台中市沙鹿區中山路187號<br> (04)2662-1882]]></description>
        <styleUrl>#icon-503-DB4436</styleUrl>
        <Point>
          <coordinates>
            120.563836,24.237201,0
          </coordinates>
        </Point>
      </Placemark>
      <Placemark>
        <name>50嵐(鹿寮店)</name>
        <description><![CDATA[433台中縣沙鹿鎮成功東街58號<br> (04)2665-7900]]></description>
        <styleUrl>#icon-503-DB4436</styleUrl>
        <Point>
          <coordinates>
            120.562871,24.242112,0
          </coordinates>
        </Point>
      </Placemark>
      <Placemark>
        <name>50嵐(沙鹿靜宜店)</name>
        <description><![CDATA[台中市沙鹿區北勢東路519號<br>(04) 2652-3432]]></description>
        <styleUrl>#icon-503-DB4436</styleUrl>
        <Point>
          <coordinates>
            120.5757257,24.2256048,0
          </coordinates>
        </Point>
      </Placemark>
      <Placemark>
        <name>50嵐(沙鹿鎮南店)</name>
        <description><![CDATA[04-26628202 <br>433台中市沙鹿區鎮南路二段594號]]></description>
        <styleUrl>#icon-503-DB4436</styleUrl>
        <Point>
          <coordinates>
            120.5608005,24.2342985,0
          </coordinates>
        </Point>
      </Placemark>
      <Placemark>
        <name>50嵐(龍井中央店)</name>
        <description>04 2630 7227 台中市龍井區中央路二段50嵐</description>
        <styleUrl>#icon-503-DB4436</styleUrl>
        <Point>
          <coordinates>
            120.523748,24.2074157,0
          </coordinates>
        </Point>
      </Placemark>
      <Placemark>
        <name>50嵐(漢口一店)</name>
        <description><![CDATA[地址:台中市北區漢口路四段369-3號<br>電話:04-22319228]]></description>
        <styleUrl>#icon-503-DB4436</styleUrl>
        <Point>
          <coordinates>
            120.6834157,24.167152,0
          </coordinates>
        </Point>
      </Placemark>
      <Placemark>
        <name>50嵐(水湳店)</name>
        <description><![CDATA[407 台中市北屯區中清路二段367號<br>(04)2296-6555]]></description>
        <styleUrl>#icon-503-DB4436</styleUrl>
        <Point>
          <coordinates>
            120.6676202,24.1793308,0
          </coordinates>
        </Point>
      </Placemark>
      <Placemark>
        <name>50嵐(黎明三店)</name>
        <description><![CDATA[台中市南屯區黎明路一段51號<br>(04)24791332]]></description>
        <styleUrl>#icon-503-DB4436</styleUrl>
        <Point>
          <coordinates>
            120.6259534,24.1133504,0
          </coordinates>
        </Point>
      </Placemark>
      <Placemark>
        <name>50嵐(忠明南店)</name>
        <description>04-23766076 忠明南路411號</description>
        <styleUrl>#icon-503-DB4436</styleUrl>
        <Point>
          <coordinates>
            120.6575691,24.14171,0
          </coordinates>
        </Point>
      </Placemark>
      <Placemark>
        <name>50嵐(興大南門店)</name>
        <description>04-22855110 台中市南區南門路166號</description>
        <styleUrl>#icon-503-DB4436</styleUrl>
        <Point>
          <coordinates>
            120.68008,24.12251,0
          </coordinates>
        </Point>
      </Placemark>
      <Placemark>
        <name>50嵐(清水中山店)</name>
        <description><![CDATA[04-26226999   <br>台中市清水區中山路192號]]></description>
        <styleUrl>#icon-503-DB4436</styleUrl>
        <Point>
          <coordinates>
            120.576266,24.27065,0
          </coordinates>
        </Point>
      </Placemark>
      <Placemark>
        <name>50嵐(清水中華店)</name>
        <description><![CDATA[台中市清水區中華路437號<br>04-26275050]]></description>
        <styleUrl>#icon-503-DB4436</styleUrl>
        <Point>
          <coordinates>
            120.5689648,24.2734051,0
          </coordinates>
        </Point>
      </Placemark>
      <Placemark>
        <name>50嵐(四張犁店)</name>
        <description><![CDATA[台中市北屯區昌平路二段53-1號<br>04-24223458]]></description>
        <styleUrl>#icon-503-DB4436</styleUrl>
        <Point>
          <coordinates>
            120.6788328,24.1611527,0
          </coordinates>
        </Point>
      </Placemark>
      <Placemark>
        <name>50嵐(逢甲文華)</name>
        <description><![CDATA[台中市西屯區文華路147號<br>04-24510551]]></description>
        <styleUrl>#icon-503-DB4436</styleUrl>
        <Point>
          <coordinates>
            120.6463456,24.1810462,0
          </coordinates>
        </Point>
      </Placemark>
      <Placemark>
        <name>50嵐(梧棲二店)
</name>
        <description><![CDATA[台中市梧棲區文化路二段316號<br>04-26567716]]></description>
        <styleUrl>#icon-503-DB4436</styleUrl>
        <Point>
          <coordinates>
            120.5320586,24.2578538,0
          </coordinates>
        </Point>
      </Placemark>
      <Placemark>
        <name>50嵐(日新店)</name>
        <description><![CDATA[台中市中區中華路一段65號<br>04-22230707]]></description>
        <styleUrl>#icon-503-DB4436</styleUrl>
        <Point>
          <coordinates>
            120.674848,24.143517,0
          </coordinates>
        </Point>
      </Placemark>
      <Placemark>
        <name>50嵐(市政店)</name>
        <description><![CDATA[台中市西屯區市政北二路50號1F<br>04-22515267]]></description>
        <styleUrl>#icon-503-DB4436</styleUrl>
        <Point>
          <coordinates>
            120.6420252,24.1607835,0
          </coordinates>
        </Point>
      </Placemark>
      <Placemark>
        <name>50嵐(大甲光明店)</name>
        <description><![CDATA[台中市大甲區光明路8-2號<br>04-26860050]]></description>
        <styleUrl>#icon-503-DB4436</styleUrl>
        <Point>
          <coordinates>
            120.6253097,24.3438195,0
          </coordinates>
        </Point>
      </Placemark>
      <Placemark>
        <name>50嵐(烏溪店)</name>
        <description><![CDATA[台中市烏日區溪南路一段648號1樓<br>04-23355789]]></description>
        <styleUrl>#icon-503-DB4436</styleUrl>
        <Point>
          <coordinates>
            120.6430369,24.0763069,0
          </coordinates>
        </Point>
      </Placemark>
      <Placemark>
        <name>50嵐(烏日站前店）</name>
        <description><![CDATA[台中市烏日區中山路二段252號<br>04-23381688]]></description>
        <styleUrl>#icon-503-DB4436</styleUrl>
        <Point>
          <coordinates>
            120.6214265,24.1066011,0
          </coordinates>
        </Point>
      </Placemark>
      <Placemark>
        <name>50嵐(烏日林新店)</name>
        <description><![CDATA[台中市烏日區榮和路37號<br>04-23376923]]></description>
        <styleUrl>#icon-503-DB4436</styleUrl>
        <Point>
          <coordinates>
            120.5970168,24.1080793,0
          </coordinates>
        </Point>
      </Placemark>
      <Placemark>
        <name>50嵐(中科廣福店)</name>
        <description><![CDATA[臺中市西屯區廣福路279之2<br>04-24528500]]></description>
        <styleUrl>#icon-503-DB4436</styleUrl>
        <Point>
          <coordinates>
            120.64372,24.200897,0
          </coordinates>
        </Point>
      </Placemark>
      <Placemark>
        <name>50嵐(潭子福潭店)</name>
        <description><![CDATA[臺中市潭子區福潭路476號1樓<br>04-25395200]]></description>
        <styleUrl>#icon-503-DB4436</styleUrl>
        <Point>
          <coordinates>
            120.7104422,24.209915,0
          </coordinates>
        </Point>
      </Placemark>
      <Placemark>
        <name>50嵐(樂群店)</name>
        <description><![CDATA[台中市西區南屯路一段61-1號<br>04-23755050]]></description>
        <styleUrl>#icon-503-DB4436</styleUrl>
        <Point>
          <coordinates>
            120.6649299,24.1320509,0
          </coordinates>
        </Point>
      </Placemark>
      <Placemark>
        <name>50嵐(旱溪店)</name>
        <description><![CDATA[台中市東區東信里振興路369之32號1樓<br>04-22111557]]></description>
        <styleUrl>#icon-503-DB4436</styleUrl>
        <Point>
          <coordinates>
            120.701709,24.1319451,0
          </coordinates>
        </Point>
      </Placemark>
    </Folder>
    <Folder>
      <name>50嵐-南投縣市</name>
      <Placemark>
        <name>50嵐(草屯中正店)</name>
        <description>542南投縣草屯鎮中正路769號 (04)92356153</description>
        <styleUrl>#icon-503-DB4436</styleUrl>
        <Point>
          <coordinates>
            120.684471,23.981626,0
          </coordinates>
        </Point>
      </Placemark>
      <Placemark>
        <name>50嵐(南投民族店)</name>
        <description><![CDATA[南投市民族路307號<br>(049)2200688]]></description>
        <styleUrl>#icon-503-DB4436</styleUrl>
        <Point>
          <coordinates>
            120.685415,23.908046,0
          </coordinates>
        </Point>
      </Placemark>
      <Placemark>
        <name>50嵐(埔里中山店)</name>
        <description>049-2981777 南投縣埔里鎮中山路二段154號</description>
        <styleUrl>#icon-503-DB4436</styleUrl>
        <Point>
          <coordinates>
            120.971339,23.968705,0
          </coordinates>
        </Point>
      </Placemark>
      <Placemark>
        <name>50嵐(埔里中正店)</name>
        <description><![CDATA[南投縣埔里鎮中正路384號 <br>049-2987172]]></description>
        <styleUrl>#icon-503-DB4436</styleUrl>
        <Point>
          <coordinates>
            120.968206,23.964646,0
          </coordinates>
        </Point>
      </Placemark>
      <Placemark>
        <name>50嵐(南投彰南店)newopen</name>
        <description><![CDATA[552南投縣南投市彰南路二段255號 <br>049-2241286]]></description>
        <styleUrl>#icon-503-DB4436</styleUrl>
        <Point>
          <coordinates>
            120.6809111,23.9127754,0
          </coordinates>
        </Point>
      </Placemark>
      <Placemark>
        <name>50嵐(南投竹山店)</name>
        <description><![CDATA[南投縣竹山鎮集山路三段897號<br>049-2651010]]></description>
        <styleUrl>#icon-503-DB4436</styleUrl>
        <Point>
          <coordinates>
            120.683141,23.75689,0
          </coordinates>
        </Point>
      </Placemark>
      <Placemark>
        <name>50嵐(南投水里店)</name>
        <description><![CDATA[南投縣水里鄉民生路359號<br>049-2770763]]></description>
        <styleUrl>#icon-503-DB4436</styleUrl>
        <Point>
          <coordinates>
            120.8544097,23.8160875,0
          </coordinates>
        </Point>
      </Placemark>
      <Placemark>
        <name>50嵐(南投名間店)</name>
        <description>049-2730073南投縣名間鄉中正村南雅街145號</description>
        <styleUrl>#icon-503-DB4436</styleUrl>
        <Point>
          <coordinates>
            120.701772,23.8384191,0
          </coordinates>
        </Point>
      </Placemark>
      <Placemark>
        <name>50嵐(南投魚池店)</name>
        <description><![CDATA[南投縣魚池鄉魚池村魚池街347號 <br>049-2895115]]></description>
        <styleUrl>#icon-503-DB4436</styleUrl>
        <Point>
          <coordinates>
            120.9376306,23.8965421,0
          </coordinates>
        </Point>
      </Placemark>
      <Placemark>
        <name>50嵐(南投民族二店)</name>
        <description>049-2245220 南投市民族路41號</description>
        <styleUrl>#icon-503-DB4436</styleUrl>
        <Point>
          <coordinates>
            120.692697,23.9105021,0
          </coordinates>
        </Point>
      </Placemark>
      <Placemark>
        <name>50嵐(南投國姓店)</name>
        <description><![CDATA[南投縣國姓鄉國姓村中興路223號1樓<br>049-2722066]]></description>
        <styleUrl>#icon-503-DB4436</styleUrl>
        <Point>
          <coordinates>
            120.855446,24.0396368,0
          </coordinates>
        </Point>
      </Placemark>
    </Folder>
    <Folder>
      <name>50嵐-彰化縣市</name>
      <Placemark>
        <name>50嵐(華山店)</name>
        <description><![CDATA[彰化市華山路16號 <br>(04)7280065]]></description>
        <styleUrl>#icon-503-DB4436</styleUrl>
        <Point>
          <coordinates>
            120.542936,24.074561,0
          </coordinates>
        </Point>
      </Placemark>
      <Placemark>
        <name>50嵐(彰化師大店)</name>
        <description><![CDATA[500彰化市進德路10-2號<br> (04)7238066]]></description>
        <styleUrl>#icon-503-DB4436</styleUrl>
        <Point>
          <coordinates>
            120.557806,24.086217,0
          </coordinates>
        </Point>
      </Placemark>
      <Placemark>
        <name>50嵐(彰化曉陽店)</name>
        <description><![CDATA[彰化市曉陽路99號<br>04-7234229]]></description>
        <styleUrl>#icon-503-DB4436</styleUrl>
        <Point>
          <coordinates>
            120.5397097,24.072413,0
          </coordinates>
        </Point>
      </Placemark>
      <Placemark>
        <name>50嵐(彰化中正二店)</name>
        <description>04-7225255 彰化市中正路二段662號</description>
        <styleUrl>#icon-503-DB4436</styleUrl>
        <Point>
          <coordinates>
            120.5350356,24.0679287,0
          </coordinates>
        </Point>
      </Placemark>
      <Placemark>
        <name>50嵐(彰化大竹店)</name>
        <description><![CDATA[彰化市大竹里彰南路二段89號<br>04-7327222]]></description>
        <styleUrl>#icon-503-DB4436</styleUrl>
        <Point>
          <coordinates>
            120.578731,24.0856829,0
          </coordinates>
        </Point>
      </Placemark>
      <Placemark>
        <name>50嵐(彰化彰美店)</name>
        <description>500彰化縣彰化市彰美路一段199號 (04)7232275</description>
        <styleUrl>#icon-503-DB4436</styleUrl>
        <Point>
          <coordinates>
            120.537379,24.088803,0
          </coordinates>
        </Point>
      </Placemark>
      <Placemark>
        <name>50嵐(彰化永安店）</name>
        <description><![CDATA[彰化市永安路236號<br>04-7282922]]></description>
        <styleUrl>#icon-503-DB4436</styleUrl>
        <Point>
          <coordinates>
            120.5442674,24.0887223,0
          </coordinates>
        </Point>
      </Placemark>
      <Placemark>
        <name>50嵐(彰化中華西店)</name>
        <description>04-7522551 彰化市中華西路508號</description>
        <styleUrl>#icon-503-DB4436</styleUrl>
        <Point>
          <coordinates>
            120.525552,24.068282,0
          </coordinates>
        </Point>
      </Placemark>
      <Placemark>
        <name>50嵐(彰化大埔店)</name>
        <description><![CDATA[彰化縣彰化市延平里大埔路464號<br>04-7115525]]></description>
        <styleUrl>#icon-503-DB4436</styleUrl>
        <Point>
          <coordinates>
            120.543232,24.063848,0
          </coordinates>
        </Point>
      </Placemark>
      <Placemark>
        <name>50嵐(花壇店)</name>
        <description>彰化縣花壇鄉中山路一段475號(04)786-6607</description>
        <styleUrl>#icon-503-DB4436</styleUrl>
        <Point>
          <coordinates>
            120.539439,24.024868,0
          </coordinates>
        </Point>
      </Placemark>
      <Placemark>
        <name>50嵐(彰化白沙店)
</name>
        <description><![CDATA[彰化縣花壇鄉白沙村18鄰彰員路三段178號<br>04-7866652]]></description>
        <styleUrl>#icon-503-DB4436</styleUrl>
        <Point>
          <coordinates>
            120.5461887,24.0458177,0
          </coordinates>
        </Point>
      </Placemark>
      <Placemark>
        <name>50嵐(彰化大村店)</name>
        <description>04-8525510 彰化縣大村鄉中山路二段298號</description>
        <styleUrl>#icon-503-DB4436</styleUrl>
        <Point>
          <coordinates>
            120.5641202,23.9888503,0
          </coordinates>
        </Point>
      </Placemark>
      <Placemark>
        <name>50嵐(員林中山店)</name>
        <description><![CDATA[510彰化縣員林鎮中山路二段243號<br> (04)8398555]]></description>
        <styleUrl>#icon-503-DB4436</styleUrl>
        <Point>
          <coordinates>
            120.571153,23.965999,0
          </coordinates>
        </Point>
      </Placemark>
      <Placemark>
        <name>50嵐(員林中正店)</name>
        <description>04-8384555彰化縣員林鎮中正路207號</description>
        <styleUrl>#icon-503-DB4436</styleUrl>
        <Point>
          <coordinates>
            120.574698,23.9537001,0
          </coordinates>
        </Point>
      </Placemark>
      <Placemark>
        <name>50嵐(員林大道店)</name>
        <description>6/23開幕 員林市中山路一段338號</description>
        <styleUrl>#icon-503-DB4436</styleUrl>
        <Point>
          <coordinates>
            120.5654688,23.9495936,0
          </coordinates>
        </Point>
      </Placemark>
      <Placemark>
        <name>50嵐(員林三民東店)
</name>
        <description><![CDATA[員林市三民東街316號<br>04-8313119]]></description>
        <styleUrl>#icon-503-DB4436</styleUrl>
        <Point>
          <coordinates>
            120.581571,23.9602369,0
          </coordinates>
        </Point>
      </Placemark>
      <Placemark>
        <name>50嵐(永靖店)</name>
        <description><![CDATA[彰化縣永靖鄉西村瑚璉路364號 <br>(04) 823-2298]]></description>
        <styleUrl>#icon-503-DB4436</styleUrl>
        <Point>
          <coordinates>
            120.545227,23.923772,0
          </coordinates>
        </Point>
      </Placemark>
      <Placemark>
        <name>50嵐(田尾店)</name>
        <description><![CDATA[04-8837077<br> 彰化縣田尾鄉田尾村中山路一段531號]]></description>
        <styleUrl>#icon-503-DB4436</styleUrl>
        <Point>
          <coordinates>
            120.52974,23.892626,0
          </coordinates>
        </Point>
      </Placemark>
      <Placemark>
        <name>50嵐(北斗店)</name>
        <description><![CDATA[521彰化縣北斗鎮光復路173號 <br>(04)8875090]]></description>
        <styleUrl>#icon-503-DB4436</styleUrl>
        <Point>
          <coordinates>
            120.524054,23.873496,0
          </coordinates>
        </Point>
      </Placemark>
      <Placemark>
        <name>50嵐(彰化田中店)</name>
        <description><![CDATA[520彰化縣田中鎮中州路一段98號<br> (04)8749343]]></description>
        <styleUrl>#icon-503-DB4436</styleUrl>
        <Point>
          <coordinates>
            120.588942,23.858367,0
          </coordinates>
        </Point>
      </Placemark>
      <Placemark>
        <name>50嵐(彰化社頭店)</name>
        <description><![CDATA[511彰化縣社頭鄉社斗路一段214號 <br>(04)8731790]]></description>
        <styleUrl>#icon-503-DB4436</styleUrl>
        <Point>
          <coordinates>
            120.587568,23.897688,0
          </coordinates>
        </Point>
      </Placemark>
      <Placemark>
        <name>50嵐(鹿港中山店)</name>
        <description><![CDATA[505彰化縣鹿港鎮中山路159號<br> (04)7752178]]></description>
        <styleUrl>#icon-503-DB4436</styleUrl>
        <Point>
          <coordinates>
            120.435154,24.053714,0
          </coordinates>
        </Point>
      </Placemark>
      <Placemark>
        <name>50嵐(鹿港中山二店)</name>
        <description><![CDATA[彰化縣鹿港鎮中山路361號<br> (04)7755757]]></description>
        <styleUrl>#icon-503-DB4436</styleUrl>
        <Point>
          <coordinates>
            120.432193,24.058123,0
          </coordinates>
        </Point>
      </Placemark>
      <Placemark>
        <name>50嵐(鹿港民權店)</name>
        <description><![CDATA[彰化縣鹿港鎮民權路65號1樓<br>04-7772011<br>2020/3/15全新開幕]]></description>
        <styleUrl>#icon-503-DB4436</styleUrl>
        <Point>
          <coordinates>
            120.4377462,24.057996,0
          </coordinates>
        </Point>
      </Placemark>
      <Placemark>
        <name>50嵐(頂番婆店)</name>
        <description>04-7720677 彰化縣鹿港鎮彰頂路334號</description>
        <styleUrl>#icon-503-DB4436</styleUrl>
        <Point>
          <coordinates>
            120.4822746,24.0858661,0
          </coordinates>
        </Point>
      </Placemark>
      <Placemark>
        <name>50嵐(彰化和美店)</name>
        <description><![CDATA[彰化縣和美鎮彰美路六段93號<br> (04)7572088]]></description>
        <styleUrl>#icon-503-DB4436</styleUrl>
        <Point>
          <coordinates>
            120.4969164,24.1139081,0
          </coordinates>
        </Point>
      </Placemark>
      <Placemark>
        <name>50嵐(彰化伸港店)</name>
        <description>04-7981088 彰化縣伸港鄉中山路22號</description>
        <styleUrl>#icon-503-DB4436</styleUrl>
        <Point>
          <coordinates>
            120.4862769,24.1471516,0
          </coordinates>
        </Point>
      </Placemark>
      <Placemark>
        <name>50嵐(秀水店)</name>
        <description><![CDATA[504彰化縣秀水鄉彰水路二段549號 <br>(04)7689800]]></description>
        <styleUrl>#icon-503-DB4436</styleUrl>
        <Point>
          <coordinates>
            120.496051,24.0299052,0
          </coordinates>
        </Point>
      </Placemark>
      <Placemark>
        <name>50嵐(彰化埔心店)</name>
        <description><![CDATA[地址:彰化縣埔心鄉義民村員鹿路二段382號<br>電話:04-8282116]]></description>
        <styleUrl>#icon-503-DB4436</styleUrl>
        <Point>
          <coordinates>
            120.5427352,23.9528481,0
          </coordinates>
        </Point>
      </Placemark>
      <Placemark>
        <name>50嵐(溪湖彰水店)</name>
        <description><![CDATA[514彰化縣溪湖鎮彰水路3段347號<br> (04)881-1965]]></description>
        <styleUrl>#icon-503-DB4436</styleUrl>
        <Point>
          <coordinates>
            120.480087,23.961039,0
          </coordinates>
        </Point>
      </Placemark>
      <Placemark>
        <name>50嵐(溪湖員鹿店)</name>
        <description><![CDATA[彰化縣溪湖鎮員鹿路二段392號<br>04-8855719]]></description>
        <styleUrl>#icon-503-DB4436</styleUrl>
        <Point>
          <coordinates>
            120.4861067,23.9565264,0
          </coordinates>
        </Point>
      </Placemark>
      <Placemark>
        <name>50嵐(彰化埤頭店)</name>
        <description><![CDATA[523彰化縣埤頭鄉斗苑西路232號<br>04-8925050]]></description>
        <styleUrl>#icon-503-DB4436</styleUrl>
        <Point>
          <coordinates>
            120.4600856,23.8917027,0
          </coordinates>
        </Point>
      </Placemark>
      <Placemark>
        <name>50嵐(二林店)</name>
        <description>04-8958001 彰化縣二林鎮東和里14鄰斗苑路5段188號</description>
        <styleUrl>#icon-503-DB4436</styleUrl>
        <Point>
          <coordinates>
            120.368234,23.9011668,0
          </coordinates>
        </Point>
      </Placemark>
    </Folder>
    <Folder>
      <name>50嵐-雲林縣市</name>
      <Placemark>
        <name>50嵐(西螺店)</name>
        <description><![CDATA[648雲林縣西螺鎮中山路111號 <br>(05)5864801]]></description>
        <styleUrl>#icon-503-DB4436-labelson</styleUrl>
        <Point>
          <coordinates>
            120.461547,23.799894,0
          </coordinates>
        </Point>
      </Placemark>
      <Placemark>
        <name>50嵐(斗六中山店)</name>
        <description><![CDATA[640雲林縣斗六市中山路292號<br> (05)5335958]]></description>
        <styleUrl>#icon-503-DB4436-labelson</styleUrl>
        <Point>
          <coordinates>
            120.538151,23.701771,0
          </coordinates>
        </Point>
      </Placemark>
      <Placemark>
        <name>50嵐(斗六民生店)</name>
        <description>05-5330959 雲林縣斗六市民生路180號</description>
        <styleUrl>#icon-503-DB4436-labelson</styleUrl>
        <Point>
          <coordinates>
            120.542722,23.712144,0
          </coordinates>
        </Point>
      </Placemark>
      <Placemark>
        <name>50嵐(斗六中華店)</name>
        <description>05-5373758 雲林縣斗六市中華路238號</description>
        <styleUrl>#icon-503-DB4436-labelson</styleUrl>
        <Point>
          <coordinates>
            120.547532,23.708351,0
          </coordinates>
        </Point>
      </Placemark>
      <Placemark>
        <name>50嵐(斗六石榴店)</name>
        <description><![CDATA[雲林縣斗六市榴中里石榴路95號<br>05-5571685]]></description>
        <styleUrl>#icon-503-DB4436-labelson</styleUrl>
        <Point>
          <coordinates>
            120.5842076,23.7236135,0
          </coordinates>
        </Point>
      </Placemark>
      <Placemark>
        <name>50嵐(斗南中山店)</name>
        <description><![CDATA[雲林縣斗南鎮中山路71號<br>(05) 596-3588]]></description>
        <styleUrl>#icon-503-DB4436-labelson</styleUrl>
        <Point>
          <coordinates>
            120.479282,23.675017,0
          </coordinates>
        </Point>
      </Placemark>
      <Placemark>
        <name>50嵐(雲林土庫店)</name>
        <description><![CDATA[633雲林縣土庫鎮建國路121號<br> (05)662-8898]]></description>
        <styleUrl>#icon-503-DB4436-labelson</styleUrl>
        <Point>
          <coordinates>
            120.393291,23.678741,0
          </coordinates>
        </Point>
      </Placemark>
      <Placemark>
        <name>50嵐(虎尾光復店)</name>
        <description>(05)6325773 632雲林縣虎尾鎮光復路345號</description>
        <styleUrl>#icon-503-DB4436-labelson</styleUrl>
        <Point>
          <coordinates>
            120.439317,23.709787,0
          </coordinates>
        </Point>
      </Placemark>
      <Placemark>
        <name>50嵐(虎尾中正店)</name>
        <description><![CDATA[632雲林縣虎尾鎮中正路222號<br> (05)6360598]]></description>
        <styleUrl>#icon-503-DB4436-labelson</styleUrl>
        <Point>
          <coordinates>
            120.431635,23.70682,0
          </coordinates>
        </Point>
      </Placemark>
      <Placemark>
        <name>50嵐(虎尾林森店)</name>
        <description><![CDATA[632雲林縣虎尾鎮林森路一段398號<br>05-6366691]]></description>
        <styleUrl>#icon-503-DB4436-labelson</styleUrl>
        <Point>
          <coordinates>
            120.435519,23.711201,0
          </coordinates>
        </Point>
      </Placemark>
      <Placemark>
        <name>50嵐(虎尾工專店)</name>
        <description><![CDATA[632雲林縣虎尾鎮工專路86號<br>05-6321466]]></description>
        <styleUrl>#icon-503-DB4436-labelson</styleUrl>
        <Point>
          <coordinates>
            120.4254892,23.7014099,0
          </coordinates>
        </Point>
      </Placemark>
      <Placemark>
        <name>50嵐(北港中山店)</name>
        <description><![CDATA[雲林縣北港鎮中山路86號<br>05-7827765]]></description>
        <styleUrl>#icon-503-DB4436-labelson</styleUrl>
        <Point>
          <coordinates>
            120.3044097,23.5660611,0
          </coordinates>
        </Point>
      </Placemark>
      <Placemark>
        <name>50嵐(北港民主店)</name>
        <description>05-7827765雲林縣北港鎮民主路46號</description>
        <styleUrl>#icon-503-DB4436-labelson</styleUrl>
        <Point>
          <coordinates>
            120.3032917,23.5682634,0
          </coordinates>
        </Point>
      </Placemark>
      <Placemark>
        <name>50嵐(北港公園店)</name>
        <description><![CDATA[雲林縣北港鎮公園路15號<br>05-7823988]]></description>
        <styleUrl>#icon-503-DB4436-labelson</styleUrl>
        <Point>
          <coordinates>
            120.3028531,23.5732366,0
          </coordinates>
        </Point>
      </Placemark>
      <Placemark>
        <name>50嵐(麥寮店)</name>
        <description><![CDATA[638雲林縣麥寮鄉光復路36號 <br>(05)6936988]]></description>
        <styleUrl>#icon-503-DB4436-labelson</styleUrl>
        <Point>
          <coordinates>
            120.2564011,23.7484185,0
          </coordinates>
        </Point>
      </Placemark>
      <Placemark>
        <name>50嵐(崙背中山店)</name>
        <description><![CDATA[雲林縣崙背鄉中山路256號<br>05-6966188]]></description>
        <styleUrl>#icon-503-DB4436-labelson</styleUrl>
        <Point>
          <coordinates>
            120.3540913,23.7609619,0
          </coordinates>
        </Point>
      </Placemark>
      <Placemark>
        <name>50嵐(雲林四湖店)</name>
        <description><![CDATA[654雲林縣四湖鄉中正路323號<br>05-7871788]]></description>
        <styleUrl>#icon-503-DB4436-labelson</styleUrl>
        <Point>
          <coordinates>
            120.2258185,23.6370197,0
          </coordinates>
        </Point>
      </Placemark>
      <Placemark>
        <name>50嵐(雲林莿桐店)</name>
        <description><![CDATA[店址：雲林縣莿桐鄉中山路164號<br>電話：05-5846800]]></description>
        <styleUrl>#icon-503-DB4436-labelson</styleUrl>
        <Point>
          <coordinates>
            120.500084,23.758737,0
          </coordinates>
        </Point>
      </Placemark>
    </Folder>
    <Folder>
      <name>50嵐-嘉義縣市</name>
      <Placemark>
        <name>50嵐(嘉義大林店)</name>
        <description><![CDATA[622嘉義縣大林鎮中山路24號<br> (05)2641067]]></description>
        <styleUrl>#icon-503-DB4436</styleUrl>
        <Point>
          <coordinates>
            120.454745,23.604144,0
          </coordinates>
        </Point>
      </Placemark>
      <Placemark>
        <name>50嵐(嘉義大埔美店)</name>
        <description><![CDATA[店址：嘉義縣大林鎮大埔美455號<br>電話：05-2956968]]></description>
        <styleUrl>#icon-503-DB4436</styleUrl>
        <Point>
          <coordinates>
            120.5104786,23.6004754,0
          </coordinates>
        </Point>
      </Placemark>
      <Placemark>
        <name>50嵐(嘉義新港店）</name>
        <description><![CDATA[嘉義縣新港鄉宮前村中山路107號<br>05-3745020]]></description>
        <styleUrl>#icon-503-DB4436</styleUrl>
        <Point>
          <coordinates>
            120.3475298,23.5536331,0
          </coordinates>
        </Point>
      </Placemark>
      <Placemark>
        <name>50嵐(嘉義朴子店)</name>
        <description><![CDATA[613嘉義縣朴子市海通路50號<br> (05)3661563]]></description>
        <styleUrl>#icon-503-DB4436</styleUrl>
        <Point>
          <coordinates>
            120.243398,23.463793,0
          </coordinates>
        </Point>
      </Placemark>
      <Placemark>
        <name>50嵐(民雄店)</name>
        <description><![CDATA[621嘉義縣民雄鄉東榮村5鄰東榮路15號<br> (05)2263022]]></description>
        <styleUrl>#icon-503-DB4436</styleUrl>
        <Point>
          <coordinates>
            120.432644,23.557319,0
          </coordinates>
        </Point>
      </Placemark>
      <Placemark>
        <name>50嵐(太保店)</name>
        <description><![CDATA[嘉義縣太保市祥和三路東段19號 <br>(05)3625592]]></description>
        <styleUrl>#icon-503-DB4436</styleUrl>
        <Point>
          <coordinates>
            120.2933058,23.4546865,0
          </coordinates>
        </Point>
      </Placemark>
      <Placemark>
        <name>50嵐(太保中山店）</name>
        <description><![CDATA[嘉義縣太保市中山路二段5-1號<br>05-2381012]]></description>
        <styleUrl>#icon-503-DB4436</styleUrl>
        <Point>
          <coordinates>
            120.3763402,23.4988798,0
          </coordinates>
        </Point>
      </Placemark>
      <Placemark>
        <name>50嵐(嘉義民族店)</name>
        <description><![CDATA[600嘉義市民族路716號 <br>(05)2227600]]></description>
        <styleUrl>#icon-503-DB4436</styleUrl>
        <Point>
          <coordinates>
            120.4430772,23.4755279,0
          </coordinates>
        </Point>
      </Placemark>
      <Placemark>
        <name>50嵐(嘉義民族二店)</name>
        <description><![CDATA[嘉義市東區民族路73號<br>(05)2227710]]></description>
        <styleUrl>#icon-503-DB4436</styleUrl>
        <Point>
          <coordinates>
            120.4597498,23.4768308,0
          </coordinates>
        </Point>
      </Placemark>
      <Placemark>
        <name>50嵐(嘉義文化店)</name>
        <description><![CDATA[600嘉義市東區文化路190號 <br>(05)2232336]]></description>
        <styleUrl>#icon-503-DB4436</styleUrl>
        <Point>
          <coordinates>
            120.449606,23.48038,0
          </coordinates>
        </Point>
      </Placemark>
      <Placemark>
        <name>50嵐(嘉義新生店)</name>
        <description><![CDATA[嘉義市東區仁義里新生路739號<br>(05) 2772797]]></description>
        <styleUrl>#icon-503-DB4436</styleUrl>
        <Point>
          <coordinates>
            120.4544502,23.4958282,0
          </coordinates>
        </Point>
      </Placemark>
      <Placemark>
        <name>50嵐(吳鳳店)</name>
        <description><![CDATA[600嘉義市吳鳳南路140-1號 <br>(05)225-0001]]></description>
        <styleUrl>#icon-503-DB4436</styleUrl>
        <Point>
          <coordinates>
            120.454724,23.465077,0
          </coordinates>
        </Point>
      </Placemark>
      <Placemark>
        <name>50嵐(嘉義民生南店)</name>
        <description><![CDATA[05-2840880<br>嘉義市西區民生南路477號1樓]]></description>
        <styleUrl>#icon-503-DB4436</styleUrl>
        <Point>
          <coordinates>
            120.4436839,23.4581388,0
          </coordinates>
        </Point>
      </Placemark>
      <Placemark>
        <name>50嵐(嘉義中山店)</name>
        <description>(05)2715158 嘉義市中山路57號</description>
        <styleUrl>#icon-503-DB4436</styleUrl>
        <Point>
          <coordinates>
            120.459423,23.482121,0
          </coordinates>
        </Point>
      </Placemark>
      <Placemark>
        <name>50嵐(嘉義興業店)</name>
        <description><![CDATA[地址:嘉義市東區興業東路289號<br>電話:05-2273575]]></description>
        <styleUrl>#icon-503-DB4436</styleUrl>
        <Point>
          <coordinates>
            120.4607731,23.4699466,0
          </coordinates>
        </Point>
      </Placemark>
      <Placemark>
        <name>50嵐(嘉義興業西店)</name>
        <description><![CDATA[嘉義市西區興業西路343號<br>05-2842311]]></description>
        <styleUrl>#icon-503-DB4436</styleUrl>
        <Point>
          <coordinates>
            120.4375982,23.4676786,0
          </coordinates>
        </Point>
      </Placemark>
      <Placemark>
        <name>50嵐(友愛店)</name>
        <description><![CDATA[嘉義市西區友愛路202號 <br>(05) 2811218]]></description>
        <styleUrl>#icon-503-DB4436</styleUrl>
        <Point>
          <coordinates>
            120.4341838,23.4809403,0
          </coordinates>
        </Point>
      </Placemark>
      <Placemark>
        <name>50嵐(嘉義頭橋店)</name>
        <description><![CDATA[621台灣嘉義縣民雄鄉建國路三段144號 <br>(05)2208548]]></description>
        <styleUrl>#icon-503-DB4436</styleUrl>
        <Point>
          <coordinates>
            120.440068,23.521477,0
          </coordinates>
        </Point>
      </Placemark>
      <Placemark>
        <name>50嵐(嘉義水上店)</name>
        <description>05-2682600 608嘉義縣水上鄉中興路300號</description>
        <styleUrl>#icon-503-DB4436</styleUrl>
        <Point>
          <coordinates>
            120.402226,23.4302732,0
          </coordinates>
        </Point>
      </Placemark>
      <Placemark>
        <name>50嵐(嘉義竹崎店)</name>
        <description><![CDATA[嘉義縣竹崎鄉和平村7鄰坑仔坪151之3號<br>05-2615250<br>2020/3/25全新開幕]]></description>
        <styleUrl>#icon-503-DB4436</styleUrl>
        <Point>
          <coordinates>
            120.5493193,23.5179688,0
          </coordinates>
        </Point>
      </Placemark>
      <Placemark>
        <name>50嵐(嘉義中正店)</name>
        <description><![CDATA[嘉義市東區中正路394號<br>05-2277150]]></description>
        <styleUrl>#icon-503-DB4436</styleUrl>
        <Point>
          <coordinates>
            120.450321,23.479004,0
          </coordinates>
        </Point>
      </Placemark>
      <Placemark>
        <name>50嵐(嘉義玉山店)</name>
        <description><![CDATA[嘉義市西區磚磘里玉山路228之2號<br>05-2841880]]></description>
        <styleUrl>#icon-503-DB4436</styleUrl>
        <Point>
          <coordinates>
            120.4255087,23.4720767,0
          </coordinates>
        </Point>
      </Placemark>
      <Placemark>
        <name>50嵐(嘉義北興店)</name>
        <description><![CDATA[嘉義市西區北興街292號<br>05-2310068]]></description>
        <styleUrl>#icon-503-DB4436</styleUrl>
        <Point>
          <coordinates>
            120.438855,23.4855279,0
          </coordinates>
        </Point>
      </Placemark>
      <Placemark>
        <name>50嵐(嘉義江厝店)newopen</name>
        <description><![CDATA[嘉義縣民雄鄉興中村江厝店7之3號1樓<br>05-2205080]]></description>
        <styleUrl>#icon-503-DB4436</styleUrl>
        <Point>
          <coordinates>
            120.4230354,23.5234,0
          </coordinates>
        </Point>
      </Placemark>
    </Folder>
    <Folder>
      <name>50嵐-外島縣市</name>
      <Placemark>
        <name>50嵐(金門金城店)</name>
        <description><![CDATA[地址:金門縣金城鎮民生路9-15號<br>電話:082-375727]]></description>
        <styleUrl>#icon-503-DB4436</styleUrl>
        <Point>
          <coordinates>
            118.3199782,24.4335132,0
          </coordinates>
        </Point>
      </Placemark>
      <Placemark>
        <name>50嵐(金門金湖店)</name>
        <description>082-337010 金門縣金湖鎮復興路51號</description>
        <styleUrl>#icon-503-DB4436</styleUrl>
        <Point>
          <coordinates>
            118.4160674,24.4412568,0
          </coordinates>
        </Point>
      </Placemark>
      <Placemark>
        <name> 50嵐(澎湖馬公店)</name>
        <description><![CDATA[881澎湖縣西嶼鄉海埔路30號 <br>(06)926-3838]]></description>
        <styleUrl>#icon-503-DB4436</styleUrl>
        <Point>
          <coordinates>
            119.56915,23.566111,0
          </coordinates>
        </Point>
      </Placemark>
      <Placemark>
        <name>50嵐(澎湖中正店)</name>
        <description><![CDATA[澎湖縣馬公市中正路28號<br>06-9266755]]></description>
        <styleUrl>#icon-503-DB4436</styleUrl>
        <Point>
          <coordinates>
            119.5652618,23.5658453,0
          </coordinates>
        </Point>
      </Placemark>
      <Placemark>
        <name>50嵐(澎湖光復店)</name>
        <description>澎湖縣馬公市光復路125之2號                                   06-9260520</description>
        <styleUrl>#icon-503-DB4436</styleUrl>
        <Point>
          <coordinates>
            119.5708407,23.5722663,0
          </coordinates>
        </Point>
      </Placemark>
    </Folder>
    <Folder>
      <name>未命名的圖層</name>
    </Folder>
  </Document>
</kml>
